{"type":"FeatureCollection","features":[{"type":"Feature","id":"Vaestotietoruudukko_2025.1965","geometry":{"type":"Polygon","coordinates":[[[24.78809558,60.20784923],[24.7880811,60.21009306],[24.79258994,60.21010019],[24.7926041,60.20785636],[24.78809558,60.20784923]]]},"geometry_name":"geom","properties":{"index":10944,"asukkaita":68,"asvaljyys":45.41,"ika0_9":99,"ika10_19":99,"ika20_29":99,"ika30_39":99,"ika40_49":99,"ika50_59":99,"ika60_69":99,"ika70_79":99,"ika_yli80":99,"paivitys_pvm":"2026-08-05Z"}},{"type":"Feature","id":"Vaestotietoruudukko_2025.1966","geometry":{"type":"Polygon","coordinates":[[[24.78811005,60.20560541],[24.78809558,60.20784923],[24.7926041,60.20785636],[24.79261827,60.20561253],[24.78811005,60.20560541]]]},"geometry_name":"geom","properties":{"index":10945,"asukkaita":25,"asvaljyys":44.24,"ika0_9":99,"ika10_19":99,"ika20_29":99,"ika30_39":99,"ika40_49":99,"ika50_59":99,"ika60_69":99,"ika70_79":99,"ika_yli80":99,"paivitys_pvm":"2026-08-05Z"}},{"type":"Feature","id":"Vaestotietoruudukko_2025.1967","geometry":{"type":"Polygon","coordinates":[[[24.78812451,60.20336159],[24.78811005,60.20560541],[24.79261827,60.20561253],[24.79263242,60.20336871],[24.78812451,60.20336159]]]},"geometry_name":"geom","properties":{"index":10946,"asukkaita":159,"asvaljyys":41.43,"ika0_9":12,"ika10_19":31,"ika20_29":8,"ika30_39":17,"ika40_49":22,"ika50_59":33,"ika60_69":16,"ika70_79":15,"ika_yli80":5,"paivitys_pvm":"2026-08-05Z"}},{"type":"Feature","id":"Vaestotietoruudukko_2025.1968","geometry":{"type":"Polygon","coordinates":[[[24.7881679,60.19663011],[24.78815344,60.19887394],[24.79266074,60.19888106],[24.79267489,60.19663723],[24.7881679,60.19663011]]]},"geometry_name":"geom","properties":{"index":10949,"asukkaita":53,"asvaljyys":38.85,"ika0_9":99,"ika10_19":99,"ika20_29":99,"ika30_39":99,"ika40_49":99,"ika50_59":99,"ika60_69":99,"ika70_79":99,"ika_yli80":99,"paivitys_pvm":"2026-08-05Z"}},{"type":"Feature","id":"Vaestotietoruudukko_2025.1969","geometry":{"type":"Polygon","coordinates":[[[24.78818236,60.19438628],[24.7881679,60.19663011],[24.79267489,60.19663723],[24.79268904,60.19439341],[24.78818236,60.19438628]]]},"geometry_name":"geom","properties":{"index":10950,"asukkaita":83,"asvaljyys":40.55,"ika0_9":99,"ika10_19":99,"ika20_29":99,"ika30_39":99,"ika40_49":99,"ika50_59":99,"ika60_69":99,"ika70_79":99,"ika_yli80":99,"paivitys_pvm":"2026-08-05Z"}},{"type":"Feature","id":"Vaestotietoruudukko_2025.1970","geometry":{"type":"Polygon","coordinates":[[[24.78819682,60.19214245],[24.78818236,60.19438628],[24.79268904,60.19439341],[24.79270319,60.19214957],[24.78819682,60.19214245]]]},"geometry_name":"geom","properties":{"index":10951,"asukkaita":66,"asvaljyys":44.14,"ika0_9":99,"ika10_19":99,"ika20_29":99,"ika30_39":99,"ika40_49":99,"ika50_59":99,"ika60_69":99,"ika70_79":99,"ika_yli80":99,"paivitys_pvm":"2026-08-05Z"}},{"type":"Feature","id":"Vaestotietoruudukko_2025.1971","geometry":{"type":"Polygon","coordinates":[[[24.78821127,60.18989862],[24.78819682,60.19214245],[24.79270319,60.19214957],[24.79271733,60.18990574],[24.78821127,60.18989862]]]},"geometry_name":"geom","properties":{"index":10952,"asukkaita":91,"asvaljyys":47.41,"ika0_9":99,"ika10_19":99,"ika20_29":99,"ika30_39":99,"ika40_49":99,"ika50_59":99,"ika60_69":99,"ika70_79":99,"ika_yli80":99,"paivitys_pvm":"2026-08-05Z"}},{"type":"Feature","id":"Vaestotietoruudukko_2025.1972","geometry":{"type":"Polygon","coordinates":[[[24.78822572,60.18765479],[24.78821127,60.18989862],[24.79271733,60.18990574],[24.79273148,60.18766191],[24.78822572,60.18765479]]]},"geometry_name":"geom","properties":{"index":10953,"asukkaita":115,"asvaljyys":44.31,"ika0_9":5,"ika10_19":20,"ika20_29":4,"ika30_39":6,"ika40_49":13,"ika50_59":17,"ika60_69":21,"ika70_79":21,"ika_yli80":8,"paivitys_pvm":"2026-08-05Z"}},{"type":"Feature","id":"Vaestotietoruudukko_2025.1973","geometry":{"type":"Polygon","coordinates":[[[24.78824017,60.18541087],[24.78822572,60.18765479],[24.79273148,60.18766191],[24.79274562,60.18541799],[24.78824017,60.18541087]]]},"geometry_name":"geom","properties":{"index":10954,"asukkaita":232,"asvaljyys":38.58,"ika0_9":22,"ika10_19":28,"ika20_29":26,"ika30_39":31,"ika40_49":40,"ika50_59":23,"ika60_69":30,"ika70_79":19,"ika_yli80":13,"paivitys_pvm":"2026-08-05Z"}},{"type":"Feature","id":"Vaestotietoruudukko_2025.1974","geometry":{"type":"Polygon","coordinates":[[[24.78825462,60.18316704],[24.78824017,60.18541087],[24.79274562,60.18541799],[24.79275976,60.18317416],[24.78825462,60.18316704]]]},"geometry_name":"geom","properties":{"index":10955,"asukkaita":248,"asvaljyys":36.32,"ika0_9":30,"ika10_19":33,"ika20_29":28,"ika30_39":36,"ika40_49":36,"ika50_59":30,"ika60_69":16,"ika70_79":22,"ika_yli80":17,"paivitys_pvm":"2026-08-05Z"}},{"type":"Feature","id":"Vaestotietoruudukko_2025.1975","geometry":{"type":"Polygon","coordinates":[[[24.78826906,60.18092321],[24.78825462,60.18316704],[24.79275976,60.18317416],[24.7927739,60.18093033],[24.78826906,60.18092321]]]},"geometry_name":"geom","properties":{"index":10956,"asukkaita":254,"asvaljyys":35.44,"ika0_9":41,"ika10_19":34,"ika20_29":14,"ika30_39":35,"ika40_49":41,"ika50_59":24,"ika60_69":27,"ika70_79":22,"ika_yli80":16,"paivitys_pvm":"2026-08-05Z"}},{"type":"Feature","id":"Vaestotietoruudukko_2025.1976","geometry":{"type":"Polygon","coordinates":[[[24.7882835,60.17867938],[24.78826906,60.18092321],[24.7927739,60.18093033],[24.79278803,60.17868649],[24.7882835,60.17867938]]]},"geometry_name":"geom","properties":{"index":10957,"asukkaita":159,"asvaljyys":34.57,"ika0_9":16,"ika10_19":22,"ika20_29":15,"ika30_39":27,"ika40_49":35,"ika50_59":15,"ika60_69":10,"ika70_79":13,"ika_yli80":6,"paivitys_pvm":"2026-08-05Z"}},{"type":"Feature","id":"Vaestotietoruudukko_2025.1977","geometry":{"type":"Polygon","coordinates":[[[24.78829794,60.17643555],[24.7882835,60.17867938],[24.79278803,60.17868649],[24.79280216,60.17644266],[24.78829794,60.17643555]]]},"geometry_name":"geom","properties":{"index":10958,"asukkaita":153,"asvaljyys":37.69,"ika0_9":3,"ika10_19":19,"ika20_29":29,"ika30_39":23,"ika40_49":24,"ika50_59":19,"ika60_69":11,"ika70_79":15,"ika_yli80":10,"paivitys_pvm":"2026-08-05Z"}},{"type":"Feature","id":"Vaestotietoruudukko_2025.1978","geometry":{"type":"Polygon","coordinates":[[[24.78831238,60.1741917],[24.78829794,60.17643555],[24.79280216,60.17644266],[24.79281629,60.17419882],[24.78831238,60.1741917]]]},"geometry_name":"geom","properties":{"index":10959,"asukkaita":437,"asvaljyys":35.11,"ika0_9":49,"ika10_19":16,"ika20_29":101,"ika30_39":110,"ika40_49":51,"ika50_59":32,"ika60_69":28,"ika70_79":32,"ika_yli80":18,"paivitys_pvm":"2026-08-05Z"}},{"type":"Feature","id":"Vaestotietoruudukko_2025.1979","geometry":{"type":"Polygon","coordinates":[[[24.78832682,60.17194787],[24.78831238,60.1741917],[24.79281629,60.17419882],[24.79283042,60.17195498],[24.78832682,60.17194787]]]},"geometry_name":"geom","properties":{"index":10960,"asukkaita":235,"asvaljyys":38.41,"ika0_9":27,"ika10_19":27,"ika20_29":16,"ika30_39":36,"ika40_49":36,"ika50_59":24,"ika60_69":20,"ika70_79":27,"ika_yli80":22,"paivitys_pvm":"2026-08-05Z"}},{"type":"Feature","id":"Vaestotietoruudukko_2025.1980","geometry":{"type":"Polygon","coordinates":[[[24.78834125,60.16970403],[24.78832682,60.17194787],[24.79283042,60.17195498],[24.79284455,60.16971115],[24.78834125,60.16970403]]]},"geometry_name":"geom","properties":{"index":10961,"asukkaita":251,"asvaljyys":43.6,"ika0_9":28,"ika10_19":23,"ika20_29":11,"ika30_39":39,"ika40_49":39,"ika50_59":24,"ika60_69":29,"ika70_79":34,"ika_yli80":24,"paivitys_pvm":"2026-08-05Z"}},{"type":"Feature","id":"Vaestotietoruudukko_2025.1981","geometry":{"type":"Polygon","coordinates":[[[24.78835568,60.1674602],[24.78834125,60.16970403],[24.79284455,60.16971115],[24.79285867,60.16746731],[24.78835568,60.1674602]]]},"geometry_name":"geom","properties":{"index":10962,"asukkaita":39,"asvaljyys":55.82,"ika0_9":99,"ika10_19":99,"ika20_29":99,"ika30_39":99,"ika40_49":99,"ika50_59":99,"ika60_69":99,"ika70_79":99,"ika_yli80":99,"paivitys_pvm":"2026-08-05Z"}},{"type":"Feature","id":"Vaestotietoruudukko_2025.1982","geometry":{"type":"Polygon","coordinates":[[[24.78837011,60.16521636],[24.78835568,60.1674602],[24.79285867,60.16746731],[24.79287279,60.16522347],[24.78837011,60.16521636]]]},"geometry_name":"geom","properties":{"index":10963,"asukkaita":122,"asvaljyys":58.01,"ika0_9":13,"ika10_19":25,"ika20_29":4,"ika30_39":10,"ika40_49":21,"ika50_59":19,"ika60_69":13,"ika70_79":13,"ika_yli80":4,"paivitys_pvm":"2026-08-05Z"}},{"type":"Feature","id":"Vaestotietoruudukko_2025.1983","geometry":{"type":"Polygon","coordinates":[[[24.78838453,60.16297252],[24.78837011,60.16521636],[24.79287279,60.16522347],[24.79288691,60.16297964],[24.78838453,60.16297252]]]},"geometry_name":"geom","properties":{"index":10964,"asukkaita":169,"asvaljyys":60.57,"ika0_9":21,"ika10_19":21,"ika20_29":15,"ika30_39":25,"ika40_49":24,"ika50_59":25,"ika60_69":16,"ika70_79":14,"ika_yli80":8,"paivitys_pvm":"2026-08-05Z"}},{"type":"Feature","id":"Vaestotietoruudukko_2025.1984","geometry":{"type":"Polygon","coordinates":[[[24.78839896,60.1607286],[24.78838453,60.16297252],[24.79288691,60.16297964],[24.79290103,60.16073571],[24.78839896,60.1607286]]]},"geometry_name":"geom","properties":{"index":10965,"asukkaita":351,"asvaljyys":46.62,"ika0_9":25,"ika10_19":44,"ika20_29":31,"ika30_39":45,"ika40_49":51,"ika50_59":43,"ika60_69":49,"ika70_79":35,"ika_yli80":28,"paivitys_pvm":"2026-08-05Z"}},{"type":"Feature","id":"Vaestotietoruudukko_2025.1985","geometry":{"type":"Polygon","coordinates":[[[24.78841338,60.15848475],[24.78839896,60.1607286],[24.79290103,60.16073571],[24.79291515,60.15849186],[24.78841338,60.15848475]]]},"geometry_name":"geom","properties":{"index":10966,"asukkaita":269,"asvaljyys":43.93,"ika0_9":33,"ika10_19":27,"ika20_29":14,"ika30_39":36,"ika40_49":38,"ika50_59":52,"ika60_69":24,"ika70_79":28,"ika_yli80":17,"paivitys_pvm":"2026-08-05Z"}},{"type":"Feature","id":"Vaestotietoruudukko_2025.2003","geometry":{"type":"Polygon","coordinates":[[[24.7926041,60.20785636],[24.79258994,60.21010019],[24.79709892,60.21010716],[24.79711278,60.20786333],[24.7926041,60.20785636]]]},"geometry_name":"geom","properties":{"index":11106,"asukkaita":97,"asvaljyys":30.09,"ika0_9":99,"ika10_19":99,"ika20_29":99,"ika30_39":99,"ika40_49":99,"ika50_59":99,"ika60_69":99,"ika70_79":99,"ika_yli80":99,"paivitys_pvm":"2026-08-05Z"}},{"type":"Feature","id":"Vaestotietoruudukko_2025.2004","geometry":{"type":"Polygon","coordinates":[[[24.79261827,60.20561253],[24.7926041,60.20785636],[24.79711278,60.20786333],[24.79712663,60.20561951],[24.79261827,60.20561253]]]},"geometry_name":"geom","properties":{"index":11107,"asukkaita":27,"asvaljyys":39.59,"ika0_9":99,"ika10_19":99,"ika20_29":99,"ika30_39":99,"ika40_49":99,"ika50_59":99,"ika60_69":99,"ika70_79":99,"ika_yli80":99,"paivitys_pvm":"2026-08-05Z"}},{"type":"Feature","id":"Vaestotietoruudukko_2025.2005","geometry":{"type":"Polygon","coordinates":[[[24.79263242,60.20336871],[24.79261827,60.20561253],[24.79712663,60.20561951],[24.79714048,60.20337568],[24.79263242,60.20336871]]]},"geometry_name":"geom","properties":{"index":11108,"asukkaita":142,"asvaljyys":39.82,"ika0_9":12,"ika10_19":33,"ika20_29":8,"ika30_39":2,"ika40_49":30,"ika50_59":29,"ika60_69":12,"ika70_79":5,"ika_yli80":11,"paivitys_pvm":"2026-08-05Z"}},{"type":"Feature","id":"Vaestotietoruudukko_2025.2006","geometry":{"type":"Polygon","coordinates":[[[24.79267489,60.19663723],[24.79266074,60.19888106],[24.79716818,60.19888803],[24.79718203,60.1966442],[24.79267489,60.19663723]]]},"geometry_name":"geom","properties":{"index":11111,"asukkaita":63,"asvaljyys":35.81,"ika0_9":99,"ika10_19":99,"ika20_29":99,"ika30_39":99,"ika40_49":99,"ika50_59":99,"ika60_69":99,"ika70_79":99,"ika_yli80":99,"paivitys_pvm":"2026-08-05Z"}},{"type":"Feature","id":"Vaestotietoruudukko_2025.2007","geometry":{"type":"Polygon","coordinates":[[[24.79268904,60.19439341],[24.79267489,60.19663723],[24.79718203,60.1966442],[24.79719587,60.19440037],[24.79268904,60.19439341]]]},"geometry_name":"geom","properties":{"index":11112,"asukkaita":87,"asvaljyys":34.98,"ika0_9":99,"ika10_19":99,"ika20_29":99,"ika30_39":99,"ika40_49":99,"ika50_59":99,"ika60_69":99,"ika70_79":99,"ika_yli80":99,"paivitys_pvm":"2026-08-05Z"}},{"type":"Feature","id":"Vaestotietoruudukko_2025.2008","geometry":{"type":"Polygon","coordinates":[[[24.79270319,60.19214957],[24.79268904,60.19439341],[24.79719587,60.19440037],[24.79720971,60.19215654],[24.79270319,60.19214957]]]},"geometry_name":"geom","properties":{"index":11113,"asukkaita":121,"asvaljyys":44.54,"ika0_9":12,"ika10_19":33,"ika20_29":3,"ika30_39":6,"ika40_49":29,"ika50_59":14,"ika60_69":10,"ika70_79":8,"ika_yli80":6,"paivitys_pvm":"2026-08-05Z"}},{"type":"Feature","id":"Vaestotietoruudukko_2025.2009","geometry":{"type":"Polygon","coordinates":[[[24.79271733,60.18990574],[24.79270319,60.19214957],[24.79720971,60.19215654],[24.79722355,60.18991271],[24.79271733,60.18990574]]]},"geometry_name":"geom","properties":{"index":11114,"asukkaita":167,"asvaljyys":47.02,"ika0_9":19,"ika10_19":19,"ika20_29":2,"ika30_39":10,"ika40_49":19,"ika50_59":24,"ika60_69":20,"ika70_79":16,"ika_yli80":38,"paivitys_pvm":"2026-08-05Z"}},{"type":"Feature","id":"Vaestotietoruudukko_2025.2010","geometry":{"type":"Polygon","coordinates":[[[24.79273148,60.18766191],[24.79271733,60.18990574],[24.79722355,60.18991271],[24.79723738,60.18766888],[24.79273148,60.18766191]]]},"geometry_name":"geom","properties":{"index":11115,"asukkaita":293,"asvaljyys":33.72,"ika0_9":36,"ika10_19":35,"ika20_29":36,"ika30_39":48,"ika40_49":49,"ika50_59":23,"ika60_69":26,"ika70_79":24,"ika_yli80":16,"paivitys_pvm":"2026-08-05Z"}},{"type":"Feature","id":"Vaestotietoruudukko_2025.2011","geometry":{"type":"Polygon","coordinates":[[[24.79274562,60.18541799],[24.79273148,60.18766191],[24.79723738,60.18766888],[24.79725122,60.18542496],[24.79274562,60.18541799]]]},"geometry_name":"geom","properties":{"index":11116,"asukkaita":111,"asvaljyys":35.41,"ika0_9":10,"ika10_19":10,"ika20_29":18,"ika30_39":28,"ika40_49":15,"ika50_59":8,"ika60_69":9,"ika70_79":10,"ika_yli80":3,"paivitys_pvm":"2026-08-05Z"}},{"type":"Feature","id":"Vaestotietoruudukko_2025.2012","geometry":{"type":"Polygon","coordinates":[[[24.79275976,60.18317416],[24.79274562,60.18541799],[24.79725122,60.18542496],[24.79726505,60.18318112],[24.79275976,60.18317416]]]},"geometry_name":"geom","properties":{"index":11117,"asukkaita":401,"asvaljyys":40.35,"ika0_9":34,"ika10_19":18,"ika20_29":51,"ika30_39":73,"ika40_49":51,"ika50_59":36,"ika60_69":37,"ika70_79":57,"ika_yli80":44,"paivitys_pvm":"2026-08-05Z"}},{"type":"Feature","id":"Vaestotietoruudukko_2025.2013","geometry":{"type":"Polygon","coordinates":[[[24.7927739,60.18093033],[24.79275976,60.18317416],[24.79726505,60.18318112],[24.79727888,60.18093729],[24.7927739,60.18093033]]]},"geometry_name":"geom","properties":{"index":11118,"asukkaita":121,"asvaljyys":42.6,"ika0_9":24,"ika10_19":21,"ika20_29":4,"ika30_39":8,"ika40_49":22,"ika50_59":13,"ika60_69":10,"ika70_79":14,"ika_yli80":5,"paivitys_pvm":"2026-08-05Z"}},{"type":"Feature","id":"Vaestotietoruudukko_2025.2014","geometry":{"type":"Polygon","coordinates":[[[24.79278803,60.17868649],[24.7927739,60.18093033],[24.79727888,60.18093729],[24.79729271,60.17869346],[24.79278803,60.17868649]]]},"geometry_name":"geom","properties":{"index":11119,"asukkaita":478,"asvaljyys":34.33,"ika0_9":36,"ika10_19":33,"ika20_29":76,"ika30_39":68,"ika40_49":49,"ika50_59":60,"ika60_69":80,"ika70_79":61,"ika_yli80":15,"paivitys_pvm":"2026-08-05Z"}},{"type":"Feature","id":"Vaestotietoruudukko_2025.2015","geometry":{"type":"Polygon","coordinates":[[[24.79280216,60.17644266],[24.79278803,60.17868649],[24.79729271,60.17869346],[24.79730653,60.17644962],[24.79280216,60.17644266]]]},"geometry_name":"geom","properties":{"index":11120,"asukkaita":376,"asvaljyys":33.85,"ika0_9":32,"ika10_19":22,"ika20_29":71,"ika30_39":99,"ika40_49":51,"ika50_59":24,"ika60_69":38,"ika70_79":31,"ika_yli80":8,"paivitys_pvm":"2026-08-05Z"}},{"type":"Feature","id":"Vaestotietoruudukko_2025.2016","geometry":{"type":"Polygon","coordinates":[[[24.79281629,60.17419882],[24.79280216,60.17644266],[24.79730653,60.17644962],[24.79732036,60.17420578],[24.79281629,60.17419882]]]},"geometry_name":"geom","properties":{"index":11121,"asukkaita":352,"asvaljyys":40.38,"ika0_9":17,"ika10_19":37,"ika20_29":58,"ika30_39":61,"ika40_49":57,"ika50_59":39,"ika60_69":31,"ika70_79":35,"ika_yli80":17,"paivitys_pvm":"2026-08-05Z"}},{"type":"Feature","id":"Vaestotietoruudukko_2025.2017","geometry":{"type":"Polygon","coordinates":[[[24.79283042,60.17195498],[24.79281629,60.17419882],[24.79732036,60.17420578],[24.79733418,60.17196195],[24.79283042,60.17195498]]]},"geometry_name":"geom","properties":{"index":11122,"asukkaita":428,"asvaljyys":39.66,"ika0_9":47,"ika10_19":24,"ika20_29":71,"ika30_39":74,"ika40_49":56,"ika50_59":31,"ika60_69":37,"ika70_79":55,"ika_yli80":33,"paivitys_pvm":"2026-08-05Z"}},{"type":"Feature","id":"Vaestotietoruudukko_2025.2018","geometry":{"type":"Polygon","coordinates":[[[24.79284455,60.16971115],[24.79283042,60.17195498],[24.79733418,60.17196195],[24.797348,60.16971811],[24.79284455,60.16971115]]]},"geometry_name":"geom","properties":{"index":11123,"asukkaita":267,"asvaljyys":40.16,"ika0_9":33,"ika10_19":30,"ika20_29":28,"ika30_39":51,"ika40_49":32,"ika50_59":23,"ika60_69":26,"ika70_79":20,"ika_yli80":24,"paivitys_pvm":"2026-08-05Z"}},{"type":"Feature","id":"Vaestotietoruudukko_2025.2019","geometry":{"type":"Polygon","coordinates":[[[24.79285867,60.16746731],[24.79284455,60.16971115],[24.797348,60.16971811],[24.79736181,60.16747427],[24.79285867,60.16746731]]]},"geometry_name":"geom","properties":{"index":11124,"asukkaita":71,"asvaljyys":36.04,"ika0_9":99,"ika10_19":99,"ika20_29":99,"ika30_39":99,"ika40_49":99,"ika50_59":99,"ika60_69":99,"ika70_79":99,"ika_yli80":99,"paivitys_pvm":"2026-08-05Z"}},{"type":"Feature","id":"Vaestotietoruudukko_2025.2020","geometry":{"type":"Polygon","coordinates":[[[24.79287279,60.16522347],[24.79285867,60.16746731],[24.79736181,60.16747427],[24.79737563,60.16523043],[24.79287279,60.16522347]]]},"geometry_name":"geom","properties":{"index":11125,"asukkaita":329,"asvaljyys":52.46,"ika0_9":43,"ika10_19":56,"ika20_29":6,"ika30_39":28,"ika40_49":64,"ika50_59":56,"ika60_69":30,"ika70_79":31,"ika_yli80":15,"paivitys_pvm":"2026-08-05Z"}},{"type":"Feature","id":"Vaestotietoruudukko_2025.2021","geometry":{"type":"Polygon","coordinates":[[[24.79288691,60.16297964],[24.79287279,60.16522347],[24.79737563,60.16523043],[24.79738944,60.1629866],[24.79288691,60.16297964]]]},"geometry_name":"geom","properties":{"index":11126,"asukkaita":51,"asvaljyys":72.29,"ika0_9":99,"ika10_19":99,"ika20_29":99,"ika30_39":99,"ika40_49":99,"ika50_59":99,"ika60_69":99,"ika70_79":99,"ika_yli80":99,"paivitys_pvm":"2026-08-05Z"}},{"type":"Feature","id":"Vaestotietoruudukko_2025.2022","geometry":{"type":"Polygon","coordinates":[[[24.79290103,60.16073571],[24.79288691,60.16297964],[24.79738944,60.1629866],[24.79740325,60.16074267],[24.79290103,60.16073571]]]},"geometry_name":"geom","properties":{"index":11127,"asukkaita":186,"asvaljyys":50.7,"ika0_9":21,"ika10_19":20,"ika20_29":15,"ika30_39":26,"ika40_49":25,"ika50_59":23,"ika60_69":22,"ika70_79":25,"ika_yli80":9,"paivitys_pvm":"2026-08-05Z"}},{"type":"Feature","id":"Vaestotietoruudukko_2025.2023","geometry":{"type":"Polygon","coordinates":[[[24.79291515,60.15849186],[24.79290103,60.16073571],[24.79740325,60.16074267],[24.79741706,60.15849882],[24.79291515,60.15849186]]]},"geometry_name":"geom","properties":{"index":11128,"asukkaita":190,"asvaljyys":65.31,"ika0_9":12,"ika10_19":20,"ika20_29":11,"ika30_39":7,"ika40_49":16,"ika50_59":31,"ika60_69":46,"ika70_79":24,"ika_yli80":23,"paivitys_pvm":"2026-08-05Z"}},{"type":"Feature","id":"Vaestotietoruudukko_2025.2048","geometry":{"type":"Polygon","coordinates":[[[24.79711278,60.20786333],[24.79709892,60.21010716],[24.80160776,60.21011398],[24.80162131,60.20787015],[24.79711278,60.20786333]]]},"geometry_name":"geom","properties":{"index":11268,"asukkaita":58,"asvaljyys":39.16,"ika0_9":99,"ika10_19":99,"ika20_29":99,"ika30_39":99,"ika40_49":99,"ika50_59":99,"ika60_69":99,"ika70_79":99,"ika_yli80":99,"paivitys_pvm":"2026-08-05Z"}},{"type":"Feature","id":"Vaestotietoruudukko_2025.2049","geometry":{"type":"Polygon","coordinates":[[[24.79712663,60.20561951],[24.79711278,60.20786333],[24.80162131,60.20787015],[24.80163486,60.20562632],[24.79712663,60.20561951]]]},"geometry_name":"geom","properties":{"index":11269,"asukkaita":70,"asvaljyys":36.96,"ika0_9":99,"ika10_19":99,"ika20_29":99,"ika30_39":99,"ika40_49":99,"ika50_59":99,"ika60_69":99,"ika70_79":99,"ika_yli80":99,"paivitys_pvm":"2026-08-05Z"}},{"type":"Feature","id":"Vaestotietoruudukko_2025.2050","geometry":{"type":"Polygon","coordinates":[[[24.79714048,60.20337568],[24.79712663,60.20561951],[24.80163486,60.20562632],[24.8016484,60.2033825],[24.79714048,60.20337568]]]},"geometry_name":"geom","properties":{"index":11270,"asukkaita":277,"asvaljyys":38.31,"ika0_9":36,"ika10_19":35,"ika20_29":23,"ika30_39":40,"ika40_49":49,"ika50_59":34,"ika60_69":28,"ika70_79":24,"ika_yli80":8,"paivitys_pvm":"2026-08-05Z"}},{"type":"Feature","id":"Vaestotietoruudukko_2025.2051","geometry":{"type":"Polygon","coordinates":[[[24.79715433,60.20113185],[24.79714048,60.20337568],[24.8016484,60.2033825],[24.80166194,60.20113867],[24.79715433,60.20113185]]]},"geometry_name":"geom","properties":{"index":11271,"asukkaita":333,"asvaljyys":28.08,"ika0_9":44,"ika10_19":34,"ika20_29":38,"ika30_39":88,"ika40_49":52,"ika50_59":28,"ika60_69":18,"ika70_79":19,"ika_yli80":12,"paivitys_pvm":"2026-08-05Z"}},{"type":"Feature","id":"Vaestotietoruudukko_2025.2052","geometry":{"type":"Polygon","coordinates":[[[24.79716818,60.19888803],[24.79715433,60.20113185],[24.80166194,60.20113867],[24.80167548,60.19889484],[24.79716818,60.19888803]]]},"geometry_name":"geom","properties":{"index":11272,"asukkaita":288,"asvaljyys":42.08,"ika0_9":47,"ika10_19":40,"ika20_29":19,"ika30_39":34,"ika40_49":53,"ika50_59":43,"ika60_69":22,"ika70_79":18,"ika_yli80":12,"paivitys_pvm":"2026-08-05Z"}},{"type":"Feature","id":"Vaestotietoruudukko_2025.2053","geometry":{"type":"Polygon","coordinates":[[[24.79718203,60.1966442],[24.79716818,60.19888803],[24.80167548,60.19889484],[24.80168902,60.19665102],[24.79718203,60.1966442]]]},"geometry_name":"geom","properties":{"index":11273,"asukkaita":59,"asvaljyys":44.86,"ika0_9":99,"ika10_19":99,"ika20_29":99,"ika30_39":99,"ika40_49":99,"ika50_59":99,"ika60_69":99,"ika70_79":99,"ika_yli80":99,"paivitys_pvm":"2026-08-05Z"}},{"type":"Feature","id":"Vaestotietoruudukko_2025.2054","geometry":{"type":"Polygon","coordinates":[[[24.79719587,60.19440037],[24.79718203,60.1966442],[24.80168902,60.19665102],[24.80170255,60.19440719],[24.79719587,60.19440037]]]},"geometry_name":"geom","properties":{"index":11274,"asukkaita":89,"asvaljyys":51.29,"ika0_9":99,"ika10_19":99,"ika20_29":99,"ika30_39":99,"ika40_49":99,"ika50_59":99,"ika60_69":99,"ika70_79":99,"ika_yli80":99,"paivitys_pvm":"2026-08-05Z"}},{"type":"Feature","id":"Vaestotietoruudukko_2025.2055","geometry":{"type":"Polygon","coordinates":[[[24.79720971,60.19215654],[24.79719587,60.19440037],[24.80170255,60.19440719],[24.80171609,60.19216335],[24.79720971,60.19215654]]]},"geometry_name":"geom","properties":{"index":11275,"asukkaita":56,"asvaljyys":39.32,"ika0_9":99,"ika10_19":99,"ika20_29":99,"ika30_39":99,"ika40_49":99,"ika50_59":99,"ika60_69":99,"ika70_79":99,"ika_yli80":99,"paivitys_pvm":"2026-08-05Z"}},{"type":"Feature","id":"Vaestotietoruudukko_2025.2056","geometry":{"type":"Polygon","coordinates":[[[24.79722355,60.18991271],[24.79720971,60.19215654],[24.80171609,60.19216335],[24.80172962,60.18991952],[24.79722355,60.18991271]]]},"geometry_name":"geom","properties":{"index":11276,"asukkaita":130,"asvaljyys":43.85,"ika0_9":11,"ika10_19":27,"ika20_29":8,"ika30_39":10,"ika40_49":21,"ika50_59":27,"ika60_69":15,"ika70_79":8,"ika_yli80":3,"paivitys_pvm":"2026-08-05Z"}},{"type":"Feature","id":"Vaestotietoruudukko_2025.2057","geometry":{"type":"Polygon","coordinates":[[[24.79723738,60.18766888],[24.79722355,60.18991271],[24.80172962,60.18991952],[24.80174315,60.18767569],[24.79723738,60.18766888]]]},"geometry_name":"geom","properties":{"index":11277,"asukkaita":338,"asvaljyys":39.27,"ika0_9":44,"ika10_19":46,"ika20_29":27,"ika30_39":43,"ika40_49":71,"ika50_59":29,"ika60_69":31,"ika70_79":33,"ika_yli80":14,"paivitys_pvm":"2026-08-05Z"}},{"type":"Feature","id":"Vaestotietoruudukko_2025.2058","geometry":{"type":"Polygon","coordinates":[[[24.79725122,60.18542496],[24.79723738,60.18766888],[24.80174315,60.18767569],[24.80175667,60.18543177],[24.79725122,60.18542496]]]},"geometry_name":"geom","properties":{"index":11278,"asukkaita":305,"asvaljyys":38.64,"ika0_9":26,"ika10_19":33,"ika20_29":34,"ika30_39":47,"ika40_49":53,"ika50_59":36,"ika60_69":19,"ika70_79":33,"ika_yli80":24,"paivitys_pvm":"2026-08-05Z"}},{"type":"Feature","id":"Vaestotietoruudukko_2025.2059","geometry":{"type":"Polygon","coordinates":[[[24.79726505,60.18318112],[24.79725122,60.18542496],[24.80175667,60.18543177],[24.8017702,60.18318794],[24.79726505,60.18318112]]]},"geometry_name":"geom","properties":{"index":11279,"asukkaita":108,"asvaljyys":34.81,"ika0_9":19,"ika10_19":4,"ika20_29":6,"ika30_39":31,"ika40_49":16,"ika50_59":8,"ika60_69":10,"ika70_79":10,"ika_yli80":4,"paivitys_pvm":"2026-08-05Z"}},{"type":"Feature","id":"Vaestotietoruudukko_2025.2060","geometry":{"type":"Polygon","coordinates":[[[24.79727888,60.18093729],[24.79726505,60.18318112],[24.8017702,60.18318794],[24.80178372,60.1809441],[24.79727888,60.18093729]]]},"geometry_name":"geom","properties":{"index":11280,"asukkaita":150,"asvaljyys":52.05,"ika0_9":15,"ika10_19":24,"ika20_29":6,"ika30_39":14,"ika40_49":17,"ika50_59":27,"ika60_69":13,"ika70_79":19,"ika_yli80":15,"paivitys_pvm":"2026-08-05Z"}},{"type":"Feature","id":"Vaestotietoruudukko_2025.2061","geometry":{"type":"Polygon","coordinates":[[[24.79729271,60.17869346],[24.79727888,60.18093729],[24.80178372,60.1809441],[24.80179724,60.17870027],[24.79729271,60.17869346]]]},"geometry_name":"geom","properties":{"index":11281,"asukkaita":236,"asvaljyys":54.25,"ika0_9":4,"ika10_19":12,"ika20_29":13,"ika30_39":20,"ika40_49":14,"ika50_59":19,"ika60_69":32,"ika70_79":69,"ika_yli80":53,"paivitys_pvm":"2026-08-05Z"}},{"type":"Feature","id":"Vaestotietoruudukko_2025.2062","geometry":{"type":"Polygon","coordinates":[[[24.79730653,60.17644962],[24.79729271,60.17869346],[24.80179724,60.17870027],[24.80181076,60.17645643],[24.79730653,60.17644962]]]},"geometry_name":"geom","properties":{"index":11282,"asukkaita":323,"asvaljyys":40.85,"ika0_9":15,"ika10_19":13,"ika20_29":57,"ika30_39":52,"ika40_49":33,"ika50_59":34,"ika60_69":34,"ika70_79":49,"ika_yli80":36,"paivitys_pvm":"2026-08-05Z"}},{"type":"Feature","id":"Vaestotietoruudukko_2025.2063","geometry":{"type":"Polygon","coordinates":[[[24.79732036,60.17420578],[24.79730653,60.17644962],[24.80181076,60.17645643],[24.80182428,60.17421259],[24.79732036,60.17420578]]]},"geometry_name":"geom","properties":{"index":11283,"asukkaita":178,"asvaljyys":40.07,"ika0_9":13,"ika10_19":11,"ika20_29":49,"ika30_39":33,"ika40_49":20,"ika50_59":11,"ika60_69":11,"ika70_79":19,"ika_yli80":11,"paivitys_pvm":"2026-08-05Z"}},{"type":"Feature","id":"Vaestotietoruudukko_2025.2064","geometry":{"type":"Polygon","coordinates":[[[24.79733418,60.17196195],[24.79732036,60.17420578],[24.80182428,60.17421259],[24.80183779,60.17196875],[24.79733418,60.17196195]]]},"geometry_name":"geom","properties":{"index":11284,"asukkaita":497,"asvaljyys":35.87,"ika0_9":35,"ika10_19":34,"ika20_29":191,"ika30_39":66,"ika40_49":35,"ika50_59":47,"ika60_69":34,"ika70_79":35,"ika_yli80":20,"paivitys_pvm":"2026-08-05Z"}},{"type":"Feature","id":"Vaestotietoruudukko_2025.2065","geometry":{"type":"Polygon","coordinates":[[[24.797348,60.16971811],[24.79733418,60.17196195],[24.80183779,60.17196875],[24.8018513,60.16972492],[24.797348,60.16971811]]]},"geometry_name":"geom","properties":{"index":11285,"asukkaita":223,"asvaljyys":52.57,"ika0_9":2,"ika10_19":9,"ika20_29":11,"ika30_39":16,"ika40_49":20,"ika50_59":20,"ika60_69":33,"ika70_79":39,"ika_yli80":73,"paivitys_pvm":"2026-08-05Z"}},{"type":"Feature","id":"Vaestotietoruudukko_2025.2066","geometry":{"type":"Polygon","coordinates":[[[24.79736181,60.16747427],[24.797348,60.16971811],[24.8018513,60.16972492],[24.80186481,60.16748108],[24.79736181,60.16747427]]]},"geometry_name":"geom","properties":{"index":11286,"asukkaita":105,"asvaljyys":45.16,"ika0_9":7,"ika10_19":9,"ika20_29":6,"ika30_39":13,"ika40_49":18,"ika50_59":8,"ika60_69":11,"ika70_79":25,"ika_yli80":8,"paivitys_pvm":"2026-08-05Z"}},{"type":"Feature","id":"Vaestotietoruudukko_2025.2067","geometry":{"type":"Polygon","coordinates":[[[24.79737563,60.16523043],[24.79736181,60.16747427],[24.80186481,60.16748108],[24.80187832,60.16523724],[24.79737563,60.16523043]]]},"geometry_name":"geom","properties":{"index":11287,"asukkaita":324,"asvaljyys":46.82,"ika0_9":35,"ika10_19":53,"ika20_29":22,"ika30_39":31,"ika40_49":55,"ika50_59":64,"ika60_69":35,"ika70_79":25,"ika_yli80":4,"paivitys_pvm":"2026-08-05Z"}},{"type":"Feature","id":"Vaestotietoruudukko_2025.2068","geometry":{"type":"Polygon","coordinates":[[[24.79738944,60.1629866],[24.79737563,60.16523043],[24.80187832,60.16523724],[24.80189182,60.1629934],[24.79738944,60.1629866]]]},"geometry_name":"geom","properties":{"index":11288,"asukkaita":117,"asvaljyys":61.18,"ika0_9":19,"ika10_19":22,"ika20_29":1,"ika30_39":12,"ika40_49":14,"ika50_59":21,"ika60_69":13,"ika70_79":10,"ika_yli80":5,"paivitys_pvm":"2026-08-05Z"}},{"type":"Feature","id":"Vaestotietoruudukko_2025.2069","geometry":{"type":"Polygon","coordinates":[[[24.79740325,60.16074267],[24.79738944,60.1629866],[24.80189182,60.1629934],[24.80190533,60.16074947],[24.79740325,60.16074267]]]},"geometry_name":"geom","properties":{"index":11289,"asukkaita":82,"asvaljyys":67.2,"ika0_9":99,"ika10_19":99,"ika20_29":99,"ika30_39":99,"ika40_49":99,"ika50_59":99,"ika60_69":99,"ika70_79":99,"ika_yli80":99,"paivitys_pvm":"2026-08-05Z"}},{"type":"Feature","id":"Vaestotietoruudukko_2025.2070","geometry":{"type":"Polygon","coordinates":[[[24.79741706,60.15849882],[24.79740325,60.16074267],[24.80190533,60.16074947],[24.80191883,60.15850562],[24.79741706,60.15849882]]]},"geometry_name":"geom","properties":{"index":11290,"asukkaita":114,"asvaljyys":69.33,"ika0_9":13,"ika10_19":23,"ika20_29":6,"ika30_39":7,"ika40_49":21,"ika50_59":16,"ika60_69":16,"ika70_79":8,"ika_yli80":4,"paivitys_pvm":"2026-08-05Z"}},{"type":"Feature","id":"Vaestotietoruudukko_2025.2099","geometry":{"type":"Polygon","coordinates":[[[24.80162131,60.20787015],[24.80160776,60.21011398],[24.8061166,60.21012065],[24.80612984,60.20787681],[24.80162131,60.20787015]]]},"geometry_name":"geom","properties":{"index":11430,"asukkaita":83,"asvaljyys":46.27,"ika0_9":99,"ika10_19":99,"ika20_29":99,"ika30_39":99,"ika40_49":99,"ika50_59":99,"ika60_69":99,"ika70_79":99,"ika_yli80":99,"paivitys_pvm":"2026-08-05Z"}},{"type":"Feature","id":"Vaestotietoruudukko_2025.2100","geometry":{"type":"Polygon","coordinates":[[[24.80163486,60.20562632],[24.80162131,60.20787015],[24.80612984,60.20787681],[24.80614308,60.20563299],[24.80163486,60.20562632]]]},"geometry_name":"geom","properties":{"index":11431,"asukkaita":189,"asvaljyys":44.97,"ika0_9":31,"ika10_19":26,"ika20_29":9,"ika30_39":25,"ika40_49":26,"ika50_59":34,"ika60_69":19,"ika70_79":10,"ika_yli80":9,"paivitys_pvm":"2026-08-05Z"}},{"type":"Feature","id":"Vaestotietoruudukko_2025.2101","geometry":{"type":"Polygon","coordinates":[[[24.8016484,60.2033825],[24.80163486,60.20562632],[24.80614308,60.20563299],[24.80615632,60.20338916],[24.8016484,60.2033825]]]},"geometry_name":"geom","properties":{"index":11432,"asukkaita":381,"asvaljyys":33.86,"ika0_9":53,"ika10_19":56,"ika20_29":37,"ika30_39":67,"ika40_49":62,"ika50_59":42,"ika60_69":27,"ika70_79":26,"ika_yli80":11,"paivitys_pvm":"2026-08-05Z"}},{"type":"Feature","id":"Vaestotietoruudukko_2025.2102","geometry":{"type":"Polygon","coordinates":[[[24.80166194,60.20113867],[24.8016484,60.2033825],[24.80615632,60.20338916],[24.80616955,60.20114534],[24.80166194,60.20113867]]]},"geometry_name":"geom","properties":{"index":11433,"asukkaita":416,"asvaljyys":31.9,"ika0_9":53,"ika10_19":51,"ika20_29":53,"ika30_39":72,"ika40_49":73,"ika50_59":52,"ika60_69":33,"ika70_79":24,"ika_yli80":5,"paivitys_pvm":"2026-08-05Z"}},{"type":"Feature","id":"Vaestotietoruudukko_2025.2103","geometry":{"type":"Polygon","coordinates":[[[24.80167548,60.19889484],[24.80166194,60.20113867],[24.80616955,60.20114534],[24.80618278,60.19890151],[24.80167548,60.19889484]]]},"geometry_name":"geom","properties":{"index":11434,"asukkaita":221,"asvaljyys":47.75,"ika0_9":20,"ika10_19":37,"ika20_29":6,"ika30_39":16,"ika40_49":39,"ika50_59":31,"ika60_69":34,"ika70_79":29,"ika_yli80":9,"paivitys_pvm":"2026-08-05Z"}},{"type":"Feature","id":"Vaestotietoruudukko_2025.2104","geometry":{"type":"Polygon","coordinates":[[[24.80168902,60.19665102],[24.80167548,60.19889484],[24.80618278,60.19890151],[24.80619601,60.19665768],[24.80168902,60.19665102]]]},"geometry_name":"geom","properties":{"index":11435,"asukkaita":47,"asvaljyys":62,"ika0_9":99,"ika10_19":99,"ika20_29":99,"ika30_39":99,"ika40_49":99,"ika50_59":99,"ika60_69":99,"ika70_79":99,"ika_yli80":99,"paivitys_pvm":"2026-08-05Z"}},{"type":"Feature","id":"Vaestotietoruudukko_2025.2105","geometry":{"type":"Polygon","coordinates":[[[24.80170255,60.19440719],[24.80168902,60.19665102],[24.80619601,60.19665768],[24.80620924,60.19441385],[24.80170255,60.19440719]]]},"geometry_name":"geom","properties":{"index":11436,"asukkaita":94,"asvaljyys":47.52,"ika0_9":99,"ika10_19":99,"ika20_29":99,"ika30_39":99,"ika40_49":99,"ika50_59":99,"ika60_69":99,"ika70_79":99,"ika_yli80":99,"paivitys_pvm":"2026-08-05Z"}},{"type":"Feature","id":"Vaestotietoruudukko_2025.2106","geometry":{"type":"Polygon","coordinates":[[[24.80171609,60.19216335],[24.80170255,60.19440719],[24.80620924,60.19441385],[24.80622247,60.19217001],[24.80171609,60.19216335]]]},"geometry_name":"geom","properties":{"index":11437,"asukkaita":183,"asvaljyys":42.08,"ika0_9":22,"ika10_19":40,"ika20_29":8,"ika30_39":11,"ika40_49":29,"ika50_59":40,"ika60_69":26,"ika70_79":7,"ika_yli80":0,"paivitys_pvm":"2026-08-05Z"}},{"type":"Feature","id":"Vaestotietoruudukko_2025.2107","geometry":{"type":"Polygon","coordinates":[[[24.80172962,60.18991952],[24.80171609,60.19216335],[24.80622247,60.19217001],[24.80623569,60.18992618],[24.80172962,60.18991952]]]},"geometry_name":"geom","properties":{"index":11438,"asukkaita":352,"asvaljyys":40.11,"ika0_9":35,"ika10_19":82,"ika20_29":15,"ika30_39":22,"ika40_49":77,"ika50_59":58,"ika60_69":34,"ika70_79":21,"ika_yli80":8,"paivitys_pvm":"2026-08-05Z"}},{"type":"Feature","id":"Vaestotietoruudukko_2025.2108","geometry":{"type":"Polygon","coordinates":[[[24.80174315,60.18767569],[24.80172962,60.18991952],[24.80623569,60.18992618],[24.80624891,60.18768235],[24.80174315,60.18767569]]]},"geometry_name":"geom","properties":{"index":11439,"asukkaita":413,"asvaljyys":30.08,"ika0_9":41,"ika10_19":38,"ika20_29":92,"ika30_39":108,"ika40_49":67,"ika50_59":25,"ika60_69":23,"ika70_79":12,"ika_yli80":7,"paivitys_pvm":"2026-08-05Z"}},{"type":"Feature","id":"Vaestotietoruudukko_2025.2109","geometry":{"type":"Polygon","coordinates":[[[24.80175667,60.18543177],[24.80174315,60.18767569],[24.80624891,60.18768235],[24.80626213,60.18543843],[24.80175667,60.18543177]]]},"geometry_name":"geom","properties":{"index":11440,"asukkaita":603,"asvaljyys":36.95,"ika0_9":60,"ika10_19":47,"ika20_29":130,"ika30_39":122,"ika40_49":83,"ika50_59":34,"ika60_69":36,"ika70_79":63,"ika_yli80":28,"paivitys_pvm":"2026-08-05Z"}},{"type":"Feature","id":"Vaestotietoruudukko_2025.2110","geometry":{"type":"Polygon","coordinates":[[[24.8017702,60.18318794],[24.80175667,60.18543177],[24.80626213,60.18543843],[24.80627535,60.1831946],[24.8017702,60.18318794]]]},"geometry_name":"geom","properties":{"index":11441,"asukkaita":399,"asvaljyys":42.25,"ika0_9":32,"ika10_19":29,"ika20_29":52,"ika30_39":58,"ika40_49":55,"ika50_59":38,"ika60_69":47,"ika70_79":51,"ika_yli80":37,"paivitys_pvm":"2026-08-05Z"}},{"type":"Feature","id":"Vaestotietoruudukko_2025.2111","geometry":{"type":"Polygon","coordinates":[[[24.80178372,60.1809441],[24.8017702,60.18318794],[24.80627535,60.1831946],[24.80628856,60.18095076],[24.80178372,60.1809441]]]},"geometry_name":"geom","properties":{"index":11442,"asukkaita":225,"asvaljyys":45.12,"ika0_9":19,"ika10_19":33,"ika20_29":13,"ika30_39":30,"ika40_49":28,"ika50_59":33,"ika60_69":29,"ika70_79":25,"ika_yli80":15,"paivitys_pvm":"2026-08-05Z"}},{"type":"Feature","id":"Vaestotietoruudukko_2025.2112","geometry":{"type":"Polygon","coordinates":[[[24.80181076,60.17645643],[24.80179724,60.17870027],[24.80630178,60.17870693],[24.80631499,60.17646309],[24.80181076,60.17645643]]]},"geometry_name":"geom","properties":{"index":11444,"asukkaita":39,"asvaljyys":44.77,"ika0_9":99,"ika10_19":99,"ika20_29":99,"ika30_39":99,"ika40_49":99,"ika50_59":99,"ika60_69":99,"ika70_79":99,"ika_yli80":99,"paivitys_pvm":"2026-08-05Z"}},{"type":"Feature","id":"Vaestotietoruudukko_2025.2113","geometry":{"type":"Polygon","coordinates":[[[24.80182428,60.17421259],[24.80181076,60.17645643],[24.80631499,60.17646309],[24.8063282,60.17421925],[24.80182428,60.17421259]]]},"geometry_name":"geom","properties":{"index":11445,"asukkaita":1147,"asvaljyys":41.5,"ika0_9":54,"ika10_19":48,"ika20_29":317,"ika30_39":199,"ika40_49":107,"ika50_59":127,"ika60_69":129,"ika70_79":104,"ika_yli80":62,"paivitys_pvm":"2026-08-05Z"}},{"type":"Feature","id":"Vaestotietoruudukko_2025.2114","geometry":{"type":"Polygon","coordinates":[[[24.80183779,60.17196875],[24.80182428,60.17421259],[24.8063282,60.17421925],[24.8063414,60.17197541],[24.80183779,60.17196875]]]},"geometry_name":"geom","properties":{"index":11446,"asukkaita":664,"asvaljyys":48.76,"ika0_9":48,"ika10_19":18,"ika20_29":102,"ika30_39":157,"ika40_49":71,"ika50_59":44,"ika60_69":70,"ika70_79":92,"ika_yli80":62,"paivitys_pvm":"2026-08-05Z"}},{"type":"Feature","id":"Vaestotietoruudukko_2025.2115","geometry":{"type":"Polygon","coordinates":[[[24.80186481,60.16748108],[24.8018513,60.16972492],[24.80635461,60.16973157],[24.80636781,60.16748773],[24.80186481,60.16748108]]]},"geometry_name":"geom","properties":{"index":11448,"asukkaita":42,"asvaljyys":54.83,"ika0_9":99,"ika10_19":99,"ika20_29":99,"ika30_39":99,"ika40_49":99,"ika50_59":99,"ika60_69":99,"ika70_79":99,"ika_yli80":99,"paivitys_pvm":"2026-08-05Z"}},{"type":"Feature","id":"Vaestotietoruudukko_2025.2116","geometry":{"type":"Polygon","coordinates":[[[24.80187832,60.16523724],[24.80186481,60.16748108],[24.80636781,60.16748773],[24.80638101,60.1652439],[24.80187832,60.16523724]]]},"geometry_name":"geom","properties":{"index":11449,"asukkaita":203,"asvaljyys":40.63,"ika0_9":21,"ika10_19":28,"ika20_29":9,"ika30_39":13,"ika40_49":23,"ika50_59":28,"ika60_69":14,"ika70_79":28,"ika_yli80":39,"paivitys_pvm":"2026-08-05Z"}},{"type":"Feature","id":"Vaestotietoruudukko_2025.2117","geometry":{"type":"Polygon","coordinates":[[[24.80189182,60.1629934],[24.80187832,60.16523724],[24.80638101,60.1652439],[24.80639421,60.16300006],[24.80189182,60.1629934]]]},"geometry_name":"geom","properties":{"index":11450,"asukkaita":163,"asvaljyys":57.97,"ika0_9":21,"ika10_19":33,"ika20_29":11,"ika30_39":15,"ika40_49":25,"ika50_59":32,"ika60_69":15,"ika70_79":4,"ika_yli80":7,"paivitys_pvm":"2026-08-05Z"}},{"type":"Feature","id":"Vaestotietoruudukko_2025.2118","geometry":{"type":"Polygon","coordinates":[[[24.80190533,60.16074947],[24.80189182,60.1629934],[24.80639421,60.16300006],[24.80640741,60.16075613],[24.80190533,60.16074947]]]},"geometry_name":"geom","properties":{"index":11451,"asukkaita":29,"asvaljyys":104.45,"ika0_9":99,"ika10_19":99,"ika20_29":99,"ika30_39":99,"ika40_49":99,"ika50_59":99,"ika60_69":99,"ika70_79":99,"ika_yli80":99,"paivitys_pvm":"2026-08-05Z"}},{"type":"Feature","id":"Vaestotietoruudukko_2025.2119","geometry":{"type":"Polygon","coordinates":[[[24.80191883,60.15850562],[24.80190533,60.16074947],[24.80640741,60.16075613],[24.8064206,60.15851228],[24.80191883,60.15850562]]]},"geometry_name":"geom","properties":{"index":11452,"asukkaita":20,"asvaljyys":115.2,"ika0_9":99,"ika10_19":99,"ika20_29":99,"ika30_39":99,"ika40_49":99,"ika50_59":99,"ika60_69":99,"ika70_79":99,"ika_yli80":99,"paivitys_pvm":"2026-08-05Z"}},{"type":"Feature","id":"Vaestotietoruudukko_2025.2155","geometry":{"type":"Polygon","coordinates":[[[24.80612984,60.20787681],[24.8061166,60.21012065],[24.81062559,60.21012716],[24.81063852,60.20788333],[24.80612984,60.20787681]]]},"geometry_name":"geom","properties":{"index":11592,"asukkaita":35,"asvaljyys":39.14,"ika0_9":99,"ika10_19":99,"ika20_29":99,"ika30_39":99,"ika40_49":99,"ika50_59":99,"ika60_69":99,"ika70_79":99,"ika_yli80":99,"paivitys_pvm":"2026-08-05Z"}},{"type":"Feature","id":"Vaestotietoruudukko_2025.2156","geometry":{"type":"Polygon","coordinates":[[[24.80614308,60.20563299],[24.80612984,60.20787681],[24.81063852,60.20788333],[24.81065145,60.2056395],[24.80614308,60.20563299]]]},"geometry_name":"geom","properties":{"index":11593,"asukkaita":49,"asvaljyys":37.43,"ika0_9":99,"ika10_19":99,"ika20_29":99,"ika30_39":99,"ika40_49":99,"ika50_59":99,"ika60_69":99,"ika70_79":99,"ika_yli80":99,"paivitys_pvm":"2026-08-05Z"}},{"type":"Feature","id":"Vaestotietoruudukko_2025.2157","geometry":{"type":"Polygon","coordinates":[[[24.80615632,60.20338916],[24.80614308,60.20563299],[24.81065145,60.2056395],[24.81066438,60.20339567],[24.80615632,60.20338916]]]},"geometry_name":"geom","properties":{"index":11594,"asukkaita":149,"asvaljyys":45.93,"ika0_9":17,"ika10_19":24,"ika20_29":5,"ika30_39":20,"ika40_49":26,"ika50_59":24,"ika60_69":20,"ika70_79":9,"ika_yli80":4,"paivitys_pvm":"2026-08-05Z"}},{"type":"Feature","id":"Vaestotietoruudukko_2025.2158","geometry":{"type":"Polygon","coordinates":[[[24.80616955,60.20114534],[24.80615632,60.20338916],[24.81066438,60.20339567],[24.81067731,60.20115185],[24.80616955,60.20114534]]]},"geometry_name":"geom","properties":{"index":11595,"asukkaita":215,"asvaljyys":42.97,"ika0_9":22,"ika10_19":42,"ika20_29":13,"ika30_39":21,"ika40_49":38,"ika50_59":29,"ika60_69":23,"ika70_79":20,"ika_yli80":7,"paivitys_pvm":"2026-08-05Z"}},{"type":"Feature","id":"Vaestotietoruudukko_2025.2159","geometry":{"type":"Polygon","coordinates":[[[24.80618278,60.19890151],[24.80616955,60.20114534],[24.81067731,60.20115185],[24.81069023,60.19890802],[24.80618278,60.19890151]]]},"geometry_name":"geom","properties":{"index":11596,"asukkaita":60,"asvaljyys":38.97,"ika0_9":99,"ika10_19":99,"ika20_29":99,"ika30_39":99,"ika40_49":99,"ika50_59":99,"ika60_69":99,"ika70_79":99,"ika_yli80":99,"paivitys_pvm":"2026-08-05Z"}},{"type":"Feature","id":"Vaestotietoruudukko_2025.2160","geometry":{"type":"Polygon","coordinates":[[[24.80620924,60.19441385],[24.80619601,60.19665768],[24.81070316,60.19666419],[24.81071608,60.19442036],[24.80620924,60.19441385]]]},"geometry_name":"geom","properties":{"index":11598,"asukkaita":6,"asvaljyys":66.17,"ika0_9":99,"ika10_19":99,"ika20_29":99,"ika30_39":99,"ika40_49":99,"ika50_59":99,"ika60_69":99,"ika70_79":99,"ika_yli80":99,"paivitys_pvm":"2026-08-05Z"}},{"type":"Feature","id":"Vaestotietoruudukko_2025.2161","geometry":{"type":"Polygon","coordinates":[[[24.80623569,60.18992618],[24.80622247,60.19217001],[24.81072899,60.19217652],[24.81074191,60.18993269],[24.80623569,60.18992618]]]},"geometry_name":"geom","properties":{"index":11600,"asukkaita":6,"asvaljyys":40.5,"ika0_9":99,"ika10_19":99,"ika20_29":99,"ika30_39":99,"ika40_49":99,"ika50_59":99,"ika60_69":99,"ika70_79":99,"ika_yli80":99,"paivitys_pvm":"2026-08-05Z"}},{"type":"Feature","id":"Vaestotietoruudukko_2025.2162","geometry":{"type":"Polygon","coordinates":[[[24.80624891,60.18768235],[24.80623569,60.18992618],[24.81074191,60.18993269],[24.81075482,60.18768886],[24.80624891,60.18768235]]]},"geometry_name":"geom","properties":{"index":11601,"asukkaita":5,"asvaljyys":19.2,"ika0_9":99,"ika10_19":99,"ika20_29":99,"ika30_39":99,"ika40_49":99,"ika50_59":99,"ika60_69":99,"ika70_79":99,"ika_yli80":99,"paivitys_pvm":"2026-08-05Z"}},{"type":"Feature","id":"Vaestotietoruudukko_2025.2163","geometry":{"type":"Polygon","coordinates":[[[24.80627535,60.1831946],[24.80626213,60.18543843],[24.81076774,60.18544493],[24.81078065,60.1832011],[24.80627535,60.1831946]]]},"geometry_name":"geom","properties":{"index":11603,"asukkaita":492,"asvaljyys":32.63,"ika0_9":26,"ika10_19":72,"ika20_29":190,"ika30_39":48,"ika40_49":33,"ika50_59":35,"ika60_69":41,"ika70_79":36,"ika_yli80":11,"paivitys_pvm":"2026-08-05Z"}},{"type":"Feature","id":"Vaestotietoruudukko_2025.2164","geometry":{"type":"Polygon","coordinates":[[[24.80628856,60.18095076],[24.80627535,60.1831946],[24.81078065,60.1832011],[24.81079355,60.18095727],[24.80628856,60.18095076]]]},"geometry_name":"geom","properties":{"index":11604,"asukkaita":80,"asvaljyys":29.54,"ika0_9":99,"ika10_19":99,"ika20_29":99,"ika30_39":99,"ika40_49":99,"ika50_59":99,"ika60_69":99,"ika70_79":99,"ika_yli80":99,"paivitys_pvm":"2026-08-05Z"}},{"type":"Feature","id":"Vaestotietoruudukko_2025.2165","geometry":{"type":"Polygon","coordinates":[[[24.80630178,60.17870693],[24.80628856,60.18095076],[24.81079355,60.18095727],[24.81080646,60.17871343],[24.80630178,60.17870693]]]},"geometry_name":"geom","properties":{"index":11605,"asukkaita":78,"asvaljyys":48.44,"ika0_9":99,"ika10_19":99,"ika20_29":99,"ika30_39":99,"ika40_49":99,"ika50_59":99,"ika60_69":99,"ika70_79":99,"ika_yli80":99,"paivitys_pvm":"2026-08-05Z"}},{"type":"Feature","id":"Vaestotietoruudukko_2025.2166","geometry":{"type":"Polygon","coordinates":[[[24.80631499,60.17646309],[24.80630178,60.17870693],[24.81080646,60.17871343],[24.81081936,60.1764696],[24.80631499,60.17646309]]]},"geometry_name":"geom","properties":{"index":11606,"asukkaita":41,"asvaljyys":48.78,"ika0_9":99,"ika10_19":99,"ika20_29":99,"ika30_39":99,"ika40_49":99,"ika50_59":99,"ika60_69":99,"ika70_79":99,"ika_yli80":99,"paivitys_pvm":"2026-08-05Z"}},{"type":"Feature","id":"Vaestotietoruudukko_2025.2167","geometry":{"type":"Polygon","coordinates":[[[24.8063414,60.17197541],[24.8063282,60.17421925],[24.81083226,60.17422575],[24.81084516,60.17198191],[24.8063414,60.17197541]]]},"geometry_name":"geom","properties":{"index":11608,"asukkaita":207,"asvaljyys":56.31,"ika0_9":19,"ika10_19":14,"ika20_29":36,"ika30_39":39,"ika40_49":35,"ika50_59":15,"ika60_69":19,"ika70_79":19,"ika_yli80":11,"paivitys_pvm":"2026-08-05Z"}},{"type":"Feature","id":"Vaestotietoruudukko_2025.2168","geometry":{"type":"Polygon","coordinates":[[[24.80635461,60.16973157],[24.8063414,60.17197541],[24.81084516,60.17198191],[24.81085806,60.16973808],[24.80635461,60.16973157]]]},"geometry_name":"geom","properties":{"index":11609,"asukkaita":735,"asvaljyys":37.01,"ika0_9":39,"ika10_19":17,"ika20_29":149,"ika30_39":141,"ika40_49":72,"ika50_59":67,"ika60_69":73,"ika70_79":110,"ika_yli80":67,"paivitys_pvm":"2026-08-05Z"}},{"type":"Feature","id":"Vaestotietoruudukko_2025.2169","geometry":{"type":"Polygon","coordinates":[[[24.80636781,60.16748773],[24.80635461,60.16973157],[24.81085806,60.16973808],[24.81087096,60.16749424],[24.80636781,60.16748773]]]},"geometry_name":"geom","properties":{"index":11610,"asukkaita":16,"asvaljyys":49.69,"ika0_9":99,"ika10_19":99,"ika20_29":99,"ika30_39":99,"ika40_49":99,"ika50_59":99,"ika60_69":99,"ika70_79":99,"ika_yli80":99,"paivitys_pvm":"2026-08-05Z"}},{"type":"Feature","id":"Vaestotietoruudukko_2025.2170","geometry":{"type":"Polygon","coordinates":[[[24.80638101,60.1652439],[24.80636781,60.16748773],[24.81087096,60.16749424],[24.81088385,60.1652504],[24.80638101,60.1652439]]]},"geometry_name":"geom","properties":{"index":11611,"asukkaita":87,"asvaljyys":76.29,"ika0_9":99,"ika10_19":99,"ika20_29":99,"ika30_39":99,"ika40_49":99,"ika50_59":99,"ika60_69":99,"ika70_79":99,"ika_yli80":99,"paivitys_pvm":"2026-08-05Z"}},{"type":"Feature","id":"Vaestotietoruudukko_2025.2171","geometry":{"type":"Polygon","coordinates":[[[24.80639421,60.16300006],[24.80638101,60.1652439],[24.81088385,60.1652504],[24.81089674,60.16300656],[24.80639421,60.16300006]]]},"geometry_name":"geom","properties":{"index":11612,"asukkaita":14,"asvaljyys":139.5,"ika0_9":99,"ika10_19":99,"ika20_29":99,"ika30_39":99,"ika40_49":99,"ika50_59":99,"ika60_69":99,"ika70_79":99,"ika_yli80":99,"paivitys_pvm":"2026-08-05Z"}},{"type":"Feature","id":"Vaestotietoruudukko_2025.2172","geometry":{"type":"Polygon","coordinates":[[[24.80640741,60.16075613],[24.80639421,60.16300006],[24.81089674,60.16300656],[24.81090963,60.16076263],[24.80640741,60.16075613]]]},"geometry_name":"geom","properties":{"index":11613,"asukkaita":16,"asvaljyys":52.94,"ika0_9":99,"ika10_19":99,"ika20_29":99,"ika30_39":99,"ika40_49":99,"ika50_59":99,"ika60_69":99,"ika70_79":99,"ika_yli80":99,"paivitys_pvm":"2026-08-05Z"}},{"type":"Feature","id":"Vaestotietoruudukko_2025.2204","geometry":{"type":"Polygon","coordinates":[[[24.81065145,60.2056395],[24.81063852,60.20788333],[24.81514706,60.20788969],[24.81515968,60.20564586],[24.81065145,60.2056395]]]},"geometry_name":"geom","properties":{"index":11755,"asukkaita":95,"asvaljyys":38.67,"ika0_9":99,"ika10_19":99,"ika20_29":99,"ika30_39":99,"ika40_49":99,"ika50_59":99,"ika60_69":99,"ika70_79":99,"ika_yli80":99,"paivitys_pvm":"2026-08-05Z"}},{"type":"Feature","id":"Vaestotietoruudukko_2025.2205","geometry":{"type":"Polygon","coordinates":[[[24.81066438,60.20339567],[24.81065145,60.2056395],[24.81515968,60.20564586],[24.81517231,60.20340203],[24.81066438,60.20339567]]]},"geometry_name":"geom","properties":{"index":11756,"asukkaita":192,"asvaljyys":40.05,"ika0_9":28,"ika10_19":26,"ika20_29":4,"ika30_39":23,"ika40_49":39,"ika50_59":38,"ika60_69":21,"ika70_79":7,"ika_yli80":6,"paivitys_pvm":"2026-08-05Z"}},{"type":"Feature","id":"Vaestotietoruudukko_2025.2206","geometry":{"type":"Polygon","coordinates":[[[24.81067731,60.20115185],[24.81066438,60.20339567],[24.81517231,60.20340203],[24.81518492,60.2011582],[24.81067731,60.20115185]]]},"geometry_name":"geom","properties":{"index":11757,"asukkaita":62,"asvaljyys":39.37,"ika0_9":99,"ika10_19":99,"ika20_29":99,"ika30_39":99,"ika40_49":99,"ika50_59":99,"ika60_69":99,"ika70_79":99,"ika_yli80":99,"paivitys_pvm":"2026-08-05Z"}},{"type":"Feature","id":"Vaestotietoruudukko_2025.2207","geometry":{"type":"Polygon","coordinates":[[[24.81078065,60.1832011],[24.81076774,60.18544493],[24.8152732,60.18545129],[24.8152858,60.18320745],[24.81078065,60.1832011]]]},"geometry_name":"geom","properties":{"index":11765,"asukkaita":71,"asvaljyys":27.46,"ika0_9":99,"ika10_19":99,"ika20_29":99,"ika30_39":99,"ika40_49":99,"ika50_59":99,"ika60_69":99,"ika70_79":99,"ika_yli80":99,"paivitys_pvm":"2026-08-05Z"}},{"type":"Feature","id":"Vaestotietoruudukko_2025.2208","geometry":{"type":"Polygon","coordinates":[[[24.81079355,60.18095727],[24.81078065,60.1832011],[24.8152858,60.18320745],[24.8152984,60.18096362],[24.81079355,60.18095727]]]},"geometry_name":"geom","properties":{"index":11766,"asukkaita":137,"asvaljyys":31.2,"ika0_9":15,"ika10_19":8,"ika20_29":31,"ika30_39":33,"ika40_49":16,"ika50_59":6,"ika60_69":10,"ika70_79":10,"ika_yli80":8,"paivitys_pvm":"2026-08-05Z"}},{"type":"Feature","id":"Vaestotietoruudukko_2025.2209","geometry":{"type":"Polygon","coordinates":[[[24.81080646,60.17871343],[24.81079355,60.18095727],[24.8152984,60.18096362],[24.815311,60.17871978],[24.81080646,60.17871343]]]},"geometry_name":"geom","properties":{"index":11767,"asukkaita":371,"asvaljyys":38.53,"ika0_9":36,"ika10_19":23,"ika20_29":42,"ika30_39":78,"ika40_49":36,"ika50_59":37,"ika60_69":45,"ika70_79":43,"ika_yli80":31,"paivitys_pvm":"2026-08-05Z"}},{"type":"Feature","id":"Vaestotietoruudukko_2025.2210","geometry":{"type":"Polygon","coordinates":[[[24.81081936,60.1764696],[24.81080646,60.17871343],[24.815311,60.17871978],[24.8153236,60.17647595],[24.81081936,60.1764696]]]},"geometry_name":"geom","properties":{"index":11768,"asukkaita":122,"asvaljyys":38.74,"ika0_9":13,"ika10_19":23,"ika20_29":7,"ika30_39":9,"ika40_49":20,"ika50_59":14,"ika60_69":13,"ika70_79":9,"ika_yli80":14,"paivitys_pvm":"2026-08-05Z"}},{"type":"Feature","id":"Vaestotietoruudukko_2025.2211","geometry":{"type":"Polygon","coordinates":[[[24.81083226,60.17422575],[24.81081936,60.1764696],[24.8153236,60.17647595],[24.81533619,60.1742321],[24.81083226,60.17422575]]]},"geometry_name":"geom","properties":{"index":11769,"asukkaita":14,"asvaljyys":61.46,"ika0_9":99,"ika10_19":99,"ika20_29":99,"ika30_39":99,"ika40_49":99,"ika50_59":99,"ika60_69":99,"ika70_79":99,"ika_yli80":99,"paivitys_pvm":"2026-08-05Z"}},{"type":"Feature","id":"Vaestotietoruudukko_2025.2212","geometry":{"type":"Polygon","coordinates":[[[24.81084516,60.17198191],[24.81083226,60.17422575],[24.81533619,60.1742321],[24.81534878,60.17198826],[24.81084516,60.17198191]]]},"geometry_name":"geom","properties":{"index":11770,"asukkaita":427,"asvaljyys":33.74,"ika0_9":27,"ika10_19":34,"ika20_29":82,"ika30_39":105,"ika40_49":77,"ika50_59":32,"ika60_69":23,"ika70_79":24,"ika_yli80":23,"paivitys_pvm":"2026-08-05Z"}},{"type":"Feature","id":"Vaestotietoruudukko_2025.2213","geometry":{"type":"Polygon","coordinates":[[[24.81085806,60.16973808],[24.81084516,60.17198191],[24.81534878,60.17198826],[24.81536137,60.16974442],[24.81085806,60.16973808]]]},"geometry_name":"geom","properties":{"index":11771,"asukkaita":296,"asvaljyys":40.69,"ika0_9":30,"ika10_19":11,"ika20_29":34,"ika30_39":60,"ika40_49":33,"ika50_59":26,"ika60_69":33,"ika70_79":44,"ika_yli80":25,"paivitys_pvm":"2026-08-05Z"}},{"type":"Feature","id":"Vaestotietoruudukko_2025.2242","geometry":{"type":"Polygon","coordinates":[[[24.81515968,60.20564586],[24.81514706,60.20788969],[24.81965559,60.20789589],[24.81966791,60.20565206],[24.81515968,60.20564586]]]},"geometry_name":"geom","properties":{"index":11917,"asukkaita":19,"asvaljyys":53.42,"ika0_9":99,"ika10_19":99,"ika20_29":99,"ika30_39":99,"ika40_49":99,"ika50_59":99,"ika60_69":99,"ika70_79":99,"ika_yli80":99,"paivitys_pvm":"2026-08-05Z"}},{"type":"Feature","id":"Vaestotietoruudukko_2025.2243","geometry":{"type":"Polygon","coordinates":[[[24.8152984,60.18096362],[24.8152858,60.18320745],[24.81979095,60.18321365],[24.81980324,60.18096982],[24.8152984,60.18096362]]]},"geometry_name":"geom","properties":{"index":11928,"asukkaita":75,"asvaljyys":36.33,"ika0_9":99,"ika10_19":99,"ika20_29":99,"ika30_39":99,"ika40_49":99,"ika50_59":99,"ika60_69":99,"ika70_79":99,"ika_yli80":99,"paivitys_pvm":"2026-08-05Z"}},{"type":"Feature","id":"Vaestotietoruudukko_2025.2244","geometry":{"type":"Polygon","coordinates":[[[24.815311,60.17871978],[24.8152984,60.18096362],[24.81980324,60.18096982],[24.81981553,60.17872598],[24.815311,60.17871978]]]},"geometry_name":"geom","properties":{"index":11929,"asukkaita":343,"asvaljyys":32.97,"ika0_9":38,"ika10_19":21,"ika20_29":60,"ika30_39":63,"ika40_49":56,"ika50_59":29,"ika60_69":26,"ika70_79":34,"ika_yli80":16,"paivitys_pvm":"2026-08-05Z"}},{"type":"Feature","id":"Vaestotietoruudukko_2025.2245","geometry":{"type":"Polygon","coordinates":[[[24.8153236,60.17647595],[24.815311,60.17871978],[24.81981553,60.17872598],[24.81982782,60.17648215],[24.8153236,60.17647595]]]},"geometry_name":"geom","properties":{"index":11930,"asukkaita":520,"asvaljyys":37.08,"ika0_9":34,"ika10_19":26,"ika20_29":129,"ika30_39":119,"ika40_49":69,"ika50_59":52,"ika60_69":35,"ika70_79":35,"ika_yli80":21,"paivitys_pvm":"2026-08-05Z"}},{"type":"Feature","id":"Vaestotietoruudukko_2025.2274","geometry":{"type":"Polygon","coordinates":[[[24.81966791,60.20565206],[24.81965559,60.20789589],[24.82416414,60.20790194],[24.82417614,60.20565812],[24.81966791,60.20565206]]]},"geometry_name":"geom","properties":{"index":12079,"asukkaita":37,"asvaljyys":71.92,"ika0_9":99,"ika10_19":99,"ika20_29":99,"ika30_39":99,"ika40_49":99,"ika50_59":99,"ika60_69":99,"ika70_79":99,"ika_yli80":99,"paivitys_pvm":"2026-08-05Z"}},{"type":"Feature","id":"Vaestotietoruudukko_2025.2275","geometry":{"type":"Polygon","coordinates":[[[24.81968022,60.20340824],[24.81966791,60.20565206],[24.82417614,60.20565812],[24.82418815,60.20341429],[24.81968022,60.20340824]]]},"geometry_name":"geom","properties":{"index":12080,"asukkaita":18,"asvaljyys":47.17,"ika0_9":99,"ika10_19":99,"ika20_29":99,"ika30_39":99,"ika40_49":99,"ika50_59":99,"ika60_69":99,"ika70_79":99,"ika_yli80":99,"paivitys_pvm":"2026-08-05Z"}},{"type":"Feature","id":"Vaestotietoruudukko_2025.2276","geometry":{"type":"Polygon","coordinates":[[[24.81980324,60.18096982],[24.81979095,60.18321365],[24.82429611,60.1832197],[24.82430809,60.18097586],[24.81980324,60.18096982]]]},"geometry_name":"geom","properties":{"index":12090,"asukkaita":11,"asvaljyys":59.09,"ika0_9":99,"ika10_19":99,"ika20_29":99,"ika30_39":99,"ika40_49":99,"ika50_59":99,"ika60_69":99,"ika70_79":99,"ika_yli80":99,"paivitys_pvm":"2026-08-05Z"}},{"type":"Feature","id":"Vaestotietoruudukko_2025.2277","geometry":{"type":"Polygon","coordinates":[[[24.81982782,60.17648215],[24.81981553,60.17872598],[24.82432008,60.17873203],[24.82433206,60.17648819],[24.81982782,60.17648215]]]},"geometry_name":"geom","properties":{"index":12092,"asukkaita":160,"asvaljyys":40.39,"ika0_9":13,"ika10_19":11,"ika20_29":31,"ika30_39":35,"ika40_49":18,"ika50_59":14,"ika60_69":19,"ika70_79":11,"ika_yli80":8,"paivitys_pvm":"2026-08-05Z"}},{"type":"Feature","id":"Vaestotietoruudukko_2025.2278","geometry":{"type":"Polygon","coordinates":[[[24.81984011,60.1742383],[24.81982782,60.17648215],[24.82433206,60.17648819],[24.82434404,60.17424434],[24.81984011,60.1742383]]]},"geometry_name":"geom","properties":{"index":12093,"asukkaita":14,"asvaljyys":59.5,"ika0_9":99,"ika10_19":99,"ika20_29":99,"ika30_39":99,"ika40_49":99,"ika50_59":99,"ika60_69":99,"ika70_79":99,"ika_yli80":99,"paivitys_pvm":"2026-08-05Z"}},{"type":"Feature","id":"Vaestotietoruudukko_2025.2279","geometry":{"type":"Polygon","coordinates":[[[24.81985239,60.17199446],[24.81984011,60.1742383],[24.82434404,60.17424434],[24.82435602,60.1720005],[24.81985239,60.17199446]]]},"geometry_name":"geom","properties":{"index":12094,"asukkaita":83,"asvaljyys":23.66,"ika0_9":99,"ika10_19":99,"ika20_29":99,"ika30_39":99,"ika40_49":99,"ika50_59":99,"ika60_69":99,"ika70_79":99,"ika_yli80":99,"paivitys_pvm":"2026-08-05Z"}},{"type":"Feature","id":"Vaestotietoruudukko_2025.2309","geometry":{"type":"Polygon","coordinates":[[[24.82416414,60.20790194],[24.82415213,60.21014578],[24.82866113,60.21015168],[24.82867283,60.20790784],[24.82416414,60.20790194]]]},"geometry_name":"geom","properties":{"index":12240,"asukkaita":6,"asvaljyys":37.5,"ika0_9":99,"ika10_19":99,"ika20_29":99,"ika30_39":99,"ika40_49":99,"ika50_59":99,"ika60_69":99,"ika70_79":99,"ika_yli80":99,"paivitys_pvm":"2026-08-05Z"}},{"type":"Feature","id":"Vaestotietoruudukko_2025.2310","geometry":{"type":"Polygon","coordinates":[[[24.82417614,60.20565812],[24.82416414,60.20790194],[24.82867283,60.20790784],[24.82868453,60.20566402],[24.82417614,60.20565812]]]},"geometry_name":"geom","properties":{"index":12241,"asukkaita":10,"asvaljyys":104,"ika0_9":99,"ika10_19":99,"ika20_29":99,"ika30_39":99,"ika40_49":99,"ika50_59":99,"ika60_69":99,"ika70_79":99,"ika_yli80":99,"paivitys_pvm":"2026-08-05Z"}},{"type":"Feature","id":"Vaestotietoruudukko_2025.2311","geometry":{"type":"Polygon","coordinates":[[[24.82418815,60.20341429],[24.82417614,60.20565812],[24.82868453,60.20566402],[24.82869623,60.20342019],[24.82418815,60.20341429]]]},"geometry_name":"geom","properties":{"index":12242,"asukkaita":36,"asvaljyys":86.33,"ika0_9":99,"ika10_19":99,"ika20_29":99,"ika30_39":99,"ika40_49":99,"ika50_59":99,"ika60_69":99,"ika70_79":99,"ika_yli80":99,"paivitys_pvm":"2026-08-05Z"}},{"type":"Feature","id":"Vaestotietoruudukko_2025.2312","geometry":{"type":"Polygon","coordinates":[[[24.82432008,60.17873203],[24.82430809,60.18097586],[24.8288131,60.18098176],[24.82882477,60.17873792],[24.82432008,60.17873203]]]},"geometry_name":"geom","properties":{"index":12253,"asukkaita":329,"asvaljyys":22.36,"ika0_9":1,"ika10_19":11,"ika20_29":277,"ika30_39":27,"ika40_49":11,"ika50_59":2,"ika60_69":0,"ika70_79":0,"ika_yli80":0,"paivitys_pvm":"2026-08-05Z"}},{"type":"Feature","id":"Vaestotietoruudukko_2025.2313","geometry":{"type":"Polygon","coordinates":[[[24.82433206,60.17648819],[24.82432008,60.17873203],[24.82882477,60.17873792],[24.82883645,60.17649408],[24.82433206,60.17648819]]]},"geometry_name":"geom","properties":{"index":12254,"asukkaita":221,"asvaljyys":34.28,"ika0_9":18,"ika10_19":14,"ika20_29":44,"ika30_39":48,"ika40_49":26,"ika50_59":26,"ika60_69":23,"ika70_79":20,"ika_yli80":2,"paivitys_pvm":"2026-08-05Z"}},{"type":"Feature","id":"Vaestotietoruudukko_2025.2314","geometry":{"type":"Polygon","coordinates":[[[24.82434404,60.17424434],[24.82433206,60.17648819],[24.82883645,60.17649408],[24.82884812,60.17425023],[24.82434404,60.17424434]]]},"geometry_name":"geom","properties":{"index":12255,"asukkaita":260,"asvaljyys":49.5,"ika0_9":21,"ika10_19":21,"ika20_29":33,"ika30_39":45,"ika40_49":40,"ika50_59":22,"ika60_69":28,"ika70_79":30,"ika_yli80":20,"paivitys_pvm":"2026-08-05Z"}},{"type":"Feature","id":"Vaestotietoruudukko_2025.2315","geometry":{"type":"Polygon","coordinates":[[[24.82435602,60.1720005],[24.82434404,60.17424434],[24.82884812,60.17425023],[24.82885979,60.1720064],[24.82435602,60.1720005]]]},"geometry_name":"geom","properties":{"index":12256,"asukkaita":212,"asvaljyys":43.65,"ika0_9":19,"ika10_19":18,"ika20_29":29,"ika30_39":37,"ika40_49":30,"ika50_59":25,"ika60_69":27,"ika70_79":14,"ika_yli80":13,"paivitys_pvm":"2026-08-05Z"}},{"type":"Feature","id":"Vaestotietoruudukko_2025.2350","geometry":{"type":"Polygon","coordinates":[[[24.82868453,60.20566402],[24.82867283,60.20790784],[24.83318137,60.20791359],[24.83319276,60.20566976],[24.82868453,60.20566402]]]},"geometry_name":"geom","properties":{"index":12403,"asukkaita":20,"asvaljyys":56.62,"ika0_9":99,"ika10_19":99,"ika20_29":99,"ika30_39":99,"ika40_49":99,"ika50_59":99,"ika60_69":99,"ika70_79":99,"ika_yli80":99,"paivitys_pvm":"2026-08-05Z"}},{"type":"Feature","id":"Vaestotietoruudukko_2025.2351","geometry":{"type":"Polygon","coordinates":[[[24.82869623,60.20342019],[24.82868453,60.20566402],[24.83319276,60.20566976],[24.83320415,60.20342593],[24.82869623,60.20342019]]]},"geometry_name":"geom","properties":{"index":12404,"asukkaita":9,"asvaljyys":16.67,"ika0_9":99,"ika10_19":99,"ika20_29":99,"ika30_39":99,"ika40_49":99,"ika50_59":99,"ika60_69":99,"ika70_79":99,"ika_yli80":99,"paivitys_pvm":"2026-08-05Z"}},{"type":"Feature","id":"Vaestotietoruudukko_2025.2352","geometry":{"type":"Polygon","coordinates":[[[24.82876637,60.18995719],[24.82875469,60.19220102],[24.83326107,60.19220676],[24.83327245,60.18996293],[24.82876637,60.18995719]]]},"geometry_name":"geom","properties":{"index":12410,"asukkaita":53,"asvaljyys":26.32,"ika0_9":99,"ika10_19":99,"ika20_29":99,"ika30_39":99,"ika40_49":99,"ika50_59":99,"ika60_69":99,"ika70_79":99,"ika_yli80":99,"paivitys_pvm":"2026-08-05Z"}},{"type":"Feature","id":"Vaestotietoruudukko_2025.2353","geometry":{"type":"Polygon","coordinates":[[[24.82880142,60.18322559],[24.82878974,60.18546943],[24.8332952,60.18547517],[24.83330657,60.18323133],[24.82880142,60.18322559]]]},"geometry_name":"geom","properties":{"index":12413,"asukkaita":52,"asvaljyys":44.94,"ika0_9":99,"ika10_19":99,"ika20_29":99,"ika30_39":99,"ika40_49":99,"ika50_59":99,"ika60_69":99,"ika70_79":99,"ika_yli80":99,"paivitys_pvm":"2026-08-05Z"}},{"type":"Feature","id":"Vaestotietoruudukko_2025.2354","geometry":{"type":"Polygon","coordinates":[[[24.8288131,60.18098176],[24.82880142,60.18322559],[24.83330657,60.18323133],[24.83331794,60.1809875],[24.8288131,60.18098176]]]},"geometry_name":"geom","properties":{"index":12414,"asukkaita":77,"asvaljyys":36.32,"ika0_9":99,"ika10_19":99,"ika20_29":99,"ika30_39":99,"ika40_49":99,"ika50_59":99,"ika60_69":99,"ika70_79":99,"ika_yli80":99,"paivitys_pvm":"2026-08-05Z"}},{"type":"Feature","id":"Vaestotietoruudukko_2025.2398","geometry":{"type":"Polygon","coordinates":[[[24.83319276,60.20566976],[24.83318137,60.20791359],[24.83768992,60.20791918],[24.837701,60.20567535],[24.83319276,60.20566976]]]},"geometry_name":"geom","properties":{"index":12565,"asukkaita":9,"asvaljyys":52.44,"ika0_9":99,"ika10_19":99,"ika20_29":99,"ika30_39":99,"ika40_49":99,"ika50_59":99,"ika60_69":99,"ika70_79":99,"ika_yli80":99,"paivitys_pvm":"2026-08-05Z"}},{"type":"Feature","id":"Vaestotietoruudukko_2025.2399","geometry":{"type":"Polygon","coordinates":[[[24.83327245,60.18996293],[24.83326107,60.19220676],[24.83776746,60.19221235],[24.83777853,60.18996852],[24.83327245,60.18996293]]]},"geometry_name":"geom","properties":{"index":12572,"asukkaita":1243,"asvaljyys":18.35,"ika0_9":18,"ika10_19":47,"ika20_29":923,"ika30_39":189,"ika40_49":43,"ika50_59":15,"ika60_69":8,"ika70_79":0,"ika_yli80":0,"paivitys_pvm":"2026-08-05Z"}},{"type":"Feature","id":"Vaestotietoruudukko_2025.2400","geometry":{"type":"Polygon","coordinates":[[[24.83328382,60.1877191],[24.83327245,60.18996293],[24.83777853,60.18996852],[24.8377896,60.18772468],[24.83328382,60.1877191]]]},"geometry_name":"geom","properties":{"index":12573,"asukkaita":541,"asvaljyys":10.09,"ika0_9":3,"ika10_19":47,"ika20_29":389,"ika30_39":78,"ika40_49":12,"ika50_59":8,"ika60_69":3,"ika70_79":1,"ika_yli80":0,"paivitys_pvm":"2026-08-05Z"}},{"type":"Feature","id":"Vaestotietoruudukko_2025.2401","geometry":{"type":"Polygon","coordinates":[[[24.8332952,60.18547517],[24.83328382,60.1877191],[24.8377896,60.18772468],[24.83780067,60.18548076],[24.8332952,60.18547517]]]},"geometry_name":"geom","properties":{"index":12574,"asukkaita":839,"asvaljyys":19,"ika0_9":6,"ika10_19":65,"ika20_29":635,"ika30_39":95,"ika40_49":35,"ika50_59":3,"ika60_69":0,"ika70_79":0,"ika_yli80":0,"paivitys_pvm":"2026-08-05Z"}},{"type":"Feature","id":"Vaestotietoruudukko_2025.2402","geometry":{"type":"Polygon","coordinates":[[[24.83330657,60.18323133],[24.8332952,60.18547517],[24.83780067,60.18548076],[24.83781174,60.18323692],[24.83330657,60.18323133]]]},"geometry_name":"geom","properties":{"index":12575,"asukkaita":79,"asvaljyys":18.84,"ika0_9":99,"ika10_19":99,"ika20_29":99,"ika30_39":99,"ika40_49":99,"ika50_59":99,"ika60_69":99,"ika70_79":99,"ika_yli80":99,"paivitys_pvm":"2026-08-05Z"}},{"type":"Feature","id":"Vaestotietoruudukko_2025.2403","geometry":{"type":"Polygon","coordinates":[[[24.83331794,60.1809875],[24.83330657,60.18323133],[24.83781174,60.18323692],[24.8378228,60.18099308],[24.83331794,60.1809875]]]},"geometry_name":"geom","properties":{"index":12576,"asukkaita":224,"asvaljyys":35.27,"ika0_9":18,"ika10_19":16,"ika20_29":66,"ika30_39":37,"ika40_49":35,"ika50_59":17,"ika60_69":19,"ika70_79":10,"ika_yli80":6,"paivitys_pvm":"2026-08-05Z"}},{"type":"Feature","id":"Vaestotietoruudukko_2025.2448","geometry":{"type":"Polygon","coordinates":[[[24.837701,60.20567535],[24.83768992,60.20791918],[24.84219862,60.20792462],[24.8422094,60.20568079],[24.837701,60.20567535]]]},"geometry_name":"geom","properties":{"index":12727,"asukkaita":5,"asvaljyys":9.99999999E8,"ika0_9":99,"ika10_19":99,"ika20_29":99,"ika30_39":99,"ika40_49":99,"ika50_59":99,"ika60_69":99,"ika70_79":99,"ika_yli80":99,"paivitys_pvm":"2026-08-05Z"}},{"type":"Feature","id":"Vaestotietoruudukko_2025.2449","geometry":{"type":"Polygon","coordinates":[[[24.83777853,60.18996852],[24.83776746,60.19221235],[24.84227401,60.19221779],[24.84228478,60.18997396],[24.83777853,60.18996852]]]},"geometry_name":"geom","properties":{"index":12734,"asukkaita":413,"asvaljyys":18.68,"ika0_9":7,"ika10_19":23,"ika20_29":255,"ika30_39":98,"ika40_49":25,"ika50_59":3,"ika60_69":0,"ika70_79":2,"ika_yli80":0,"paivitys_pvm":"2026-08-05Z"}},{"type":"Feature","id":"Vaestotietoruudukko_2025.2450","geometry":{"type":"Polygon","coordinates":[[[24.8377896,60.18772468],[24.83777853,60.18996852],[24.84228478,60.18997396],[24.84229554,60.18773012],[24.8377896,60.18772468]]]},"geometry_name":"geom","properties":{"index":12735,"asukkaita":833,"asvaljyys":15.2,"ika0_9":0,"ika10_19":32,"ika20_29":607,"ika30_39":145,"ika40_49":45,"ika50_59":4,"ika60_69":0,"ika70_79":0,"ika_yli80":0,"paivitys_pvm":"2026-08-05Z"}},{"type":"Feature","id":"Vaestotietoruudukko_2025.2498","geometry":{"type":"Polygon","coordinates":[[[24.84232781,60.18099852],[24.84231706,60.18324236],[24.84682221,60.18324764],[24.84683266,60.1810038],[24.84232781,60.18099852]]]},"geometry_name":"geom","properties":{"index":12900,"asukkaita":25,"asvaljyys":117.04,"ika0_9":99,"ika10_19":99,"ika20_29":99,"ika30_39":99,"ika40_49":99,"ika50_59":99,"ika60_69":99,"ika70_79":99,"ika_yli80":99,"paivitys_pvm":"2026-08-05Z"}},{"type":"Feature","id":"Vaestotietoruudukko_2025.2499","geometry":{"type":"Polygon","coordinates":[[[24.84233857,60.17875468],[24.84232781,60.18099852],[24.84683266,60.1810038],[24.84684311,60.17875996],[24.84233857,60.17875468]]]},"geometry_name":"geom","properties":{"index":12901,"asukkaita":179,"asvaljyys":36.32,"ika0_9":13,"ika10_19":24,"ika20_29":30,"ika30_39":11,"ika40_49":27,"ika50_59":23,"ika60_69":18,"ika70_79":19,"ika_yli80":14,"paivitys_pvm":"2026-08-05Z"}},{"type":"Feature","id":"Vaestotietoruudukko_2025.2546","geometry":{"type":"Polygon","coordinates":[[[24.8467281,60.20344225],[24.84671763,60.20568608],[24.85122588,60.20569121],[24.85123603,60.20344738],[24.8467281,60.20344225]]]},"geometry_name":"geom","properties":{"index":13052,"asukkaita":15,"asvaljyys":9.99999999E8,"ika0_9":99,"ika10_19":99,"ika20_29":99,"ika30_39":99,"ika40_49":99,"ika50_59":99,"ika60_69":99,"ika70_79":99,"ika_yli80":99,"paivitys_pvm":"2026-08-05Z"}},{"type":"Feature","id":"Vaestotietoruudukko_2025.2547","geometry":{"type":"Polygon","coordinates":[[[24.84683266,60.1810038],[24.84682221,60.18324764],[24.85132738,60.18325277],[24.85133752,60.18100893],[24.84683266,60.1810038]]]},"geometry_name":"geom","properties":{"index":13062,"asukkaita":189,"asvaljyys":55.56,"ika0_9":19,"ika10_19":24,"ika20_29":23,"ika30_39":12,"ika40_49":24,"ika50_59":24,"ika60_69":20,"ika70_79":15,"ika_yli80":28,"paivitys_pvm":"2026-08-05Z"}},{"type":"Feature","id":"Vaestotietoruudukko_2025.2548","geometry":{"type":"Polygon","coordinates":[[[24.84684311,60.17875996],[24.84683266,60.1810038],[24.85133752,60.18100893],[24.85134767,60.17876509],[24.84684311,60.17875996]]]},"geometry_name":"geom","properties":{"index":13063,"asukkaita":346,"asvaljyys":40,"ika0_9":40,"ika10_19":27,"ika20_29":50,"ika30_39":46,"ika40_49":43,"ika50_59":36,"ika60_69":48,"ika70_79":30,"ika_yli80":26,"paivitys_pvm":"2026-08-05Z"}},{"type":"Feature","id":"Vaestotietoruudukko_2025.2599","geometry":{"type":"Polygon","coordinates":[[[24.85121572,60.20793504],[24.85120555,60.21017888],[24.85571442,60.21018386],[24.85572427,60.20794002],[24.85121572,60.20793504]]]},"geometry_name":"geom","properties":{"index":13212,"asukkaita":43,"asvaljyys":37.7,"ika0_9":99,"ika10_19":99,"ika20_29":99,"ika30_39":99,"ika40_49":99,"ika50_59":99,"ika60_69":99,"ika70_79":99,"ika_yli80":99,"paivitys_pvm":"2026-08-05Z"}},{"type":"Feature","id":"Vaestotietoruudukko_2025.2600","geometry":{"type":"Polygon","coordinates":[[[24.85122588,60.20569121],[24.85121572,60.20793504],[24.85572427,60.20794002],[24.85573412,60.20569619],[24.85122588,60.20569121]]]},"geometry_name":"geom","properties":{"index":13213,"asukkaita":322,"asvaljyys":38.57,"ika0_9":31,"ika10_19":31,"ika20_29":109,"ika30_39":71,"ika40_49":33,"ika50_59":19,"ika60_69":13,"ika70_79":11,"ika_yli80":4,"paivitys_pvm":"2026-08-05Z"}},{"type":"Feature","id":"Vaestotietoruudukko_2025.2601","geometry":{"type":"Polygon","coordinates":[[[24.85132738,60.18325277],[24.85131724,60.1854966],[24.85582272,60.18550158],[24.85583255,60.18325774],[24.85132738,60.18325277]]]},"geometry_name":"geom","properties":{"index":13223,"asukkaita":59,"asvaljyys":76.71,"ika0_9":99,"ika10_19":99,"ika20_29":99,"ika30_39":99,"ika40_49":99,"ika50_59":99,"ika60_69":99,"ika70_79":99,"ika_yli80":99,"paivitys_pvm":"2026-08-05Z"}},{"type":"Feature","id":"Vaestotietoruudukko_2025.2602","geometry":{"type":"Polygon","coordinates":[[[24.85133752,60.18100893],[24.85132738,60.18325277],[24.85583255,60.18325774],[24.85584239,60.1810139],[24.85133752,60.18100893]]]},"geometry_name":"geom","properties":{"index":13224,"asukkaita":62,"asvaljyys":40.13,"ika0_9":99,"ika10_19":99,"ika20_29":99,"ika30_39":99,"ika40_49":99,"ika50_59":99,"ika60_69":99,"ika70_79":99,"ika_yli80":99,"paivitys_pvm":"2026-08-05Z"}},{"type":"Feature","id":"Vaestotietoruudukko_2025.2603","geometry":{"type":"Polygon","coordinates":[[[24.85134767,60.17876509],[24.85133752,60.18100893],[24.85584239,60.1810139],[24.85585222,60.17877006],[24.85134767,60.17876509]]]},"geometry_name":"geom","properties":{"index":13225,"asukkaita":262,"asvaljyys":41.35,"ika0_9":22,"ika10_19":24,"ika20_29":36,"ika30_39":44,"ika40_49":39,"ika50_59":38,"ika60_69":26,"ika70_79":10,"ika_yli80":23,"paivitys_pvm":"2026-08-05Z"}},{"type":"Feature","id":"Vaestotietoruudukko_2025.2604","geometry":{"type":"Polygon","coordinates":[[[24.8513578,60.17652125],[24.85134767,60.17876509],[24.85585222,60.17877006],[24.85586205,60.17652622],[24.8513578,60.17652125]]]},"geometry_name":"geom","properties":{"index":13226,"asukkaita":91,"asvaljyys":51.75,"ika0_9":99,"ika10_19":99,"ika20_29":99,"ika30_39":99,"ika40_49":99,"ika50_59":99,"ika60_69":99,"ika70_79":99,"ika_yli80":99,"paivitys_pvm":"2026-08-05Z"}},{"type":"Feature","id":"Vaestotietoruudukko_2025.2605","geometry":{"type":"Polygon","coordinates":[[[24.8514186,60.16305818],[24.85140847,60.16530202],[24.85591119,60.165307],[24.85592101,60.16306315],[24.8514186,60.16305818]]]},"geometry_name":"geom","properties":{"index":13232,"asukkaita":8,"asvaljyys":130.38,"ika0_9":99,"ika10_19":99,"ika20_29":99,"ika30_39":99,"ika40_49":99,"ika50_59":99,"ika60_69":99,"ika70_79":99,"ika_yli80":99,"paivitys_pvm":"2026-08-05Z"}},{"type":"Feature","id":"Vaestotietoruudukko_2025.2652","geometry":{"type":"Polygon","coordinates":[[[24.85572427,60.20794002],[24.85571442,60.21018386],[24.86022343,60.21018869],[24.86023297,60.20794485],[24.85572427,60.20794002]]]},"geometry_name":"geom","properties":{"index":13374,"asukkaita":284,"asvaljyys":36.95,"ika0_9":26,"ika10_19":21,"ika20_29":16,"ika30_39":46,"ika40_49":53,"ika50_59":40,"ika60_69":52,"ika70_79":25,"ika_yli80":5,"paivitys_pvm":"2026-08-05Z"}},{"type":"Feature","id":"Vaestotietoruudukko_2025.2653","geometry":{"type":"Polygon","coordinates":[[[24.85573412,60.20569619],[24.85572427,60.20794002],[24.86023297,60.20794485],[24.86024251,60.20570102],[24.85573412,60.20569619]]]},"geometry_name":"geom","properties":{"index":13375,"asukkaita":452,"asvaljyys":33.58,"ika0_9":42,"ika10_19":68,"ika20_29":39,"ika30_39":70,"ika40_49":59,"ika50_59":61,"ika60_69":66,"ika70_79":34,"ika_yli80":13,"paivitys_pvm":"2026-08-05Z"}},{"type":"Feature","id":"Vaestotietoruudukko_2025.2654","geometry":{"type":"Polygon","coordinates":[[[24.85575382,60.20120853],[24.85574397,60.20345236],[24.86025206,60.20345719],[24.8602616,60.20121335],[24.85575382,60.20120853]]]},"geometry_name":"geom","properties":{"index":13377,"asukkaita":17,"asvaljyys":48.76,"ika0_9":99,"ika10_19":99,"ika20_29":99,"ika30_39":99,"ika40_49":99,"ika50_59":99,"ika60_69":99,"ika70_79":99,"ika_yli80":99,"paivitys_pvm":"2026-08-05Z"}},{"type":"Feature","id":"Vaestotietoruudukko_2025.2655","geometry":{"type":"Polygon","coordinates":[[[24.85582272,60.18550158],[24.85581288,60.18774551],[24.86031881,60.18775033],[24.86032834,60.1855064],[24.85582272,60.18550158]]]},"geometry_name":"geom","properties":{"index":13384,"asukkaita":53,"asvaljyys":93.81,"ika0_9":99,"ika10_19":99,"ika20_29":99,"ika30_39":99,"ika40_49":99,"ika50_59":99,"ika60_69":99,"ika70_79":99,"ika_yli80":99,"paivitys_pvm":"2026-08-05Z"}},{"type":"Feature","id":"Vaestotietoruudukko_2025.2656","geometry":{"type":"Polygon","coordinates":[[[24.85583255,60.18325774],[24.85582272,60.18550158],[24.86032834,60.1855064],[24.86033787,60.18326256],[24.85583255,60.18325774]]]},"geometry_name":"geom","properties":{"index":13385,"asukkaita":137,"asvaljyys":54.46,"ika0_9":12,"ika10_19":28,"ika20_29":5,"ika30_39":2,"ika40_49":25,"ika50_59":26,"ika60_69":18,"ika70_79":13,"ika_yli80":8,"paivitys_pvm":"2026-08-05Z"}},{"type":"Feature","id":"Vaestotietoruudukko_2025.2657","geometry":{"type":"Polygon","coordinates":[[[24.85584239,60.1810139],[24.85583255,60.18325774],[24.86033787,60.18326256],[24.8603474,60.18101872],[24.85584239,60.1810139]]]},"geometry_name":"geom","properties":{"index":13386,"asukkaita":20,"asvaljyys":144.3,"ika0_9":99,"ika10_19":99,"ika20_29":99,"ika30_39":99,"ika40_49":99,"ika50_59":99,"ika60_69":99,"ika70_79":99,"ika_yli80":99,"paivitys_pvm":"2026-08-05Z"}},{"type":"Feature","id":"Vaestotietoruudukko_2025.2658","geometry":{"type":"Polygon","coordinates":[[[24.85585222,60.17877006],[24.85584239,60.1810139],[24.8603474,60.18101872],[24.86035692,60.17877488],[24.85585222,60.17877006]]]},"geometry_name":"geom","properties":{"index":13387,"asukkaita":88,"asvaljyys":77.19,"ika0_9":99,"ika10_19":99,"ika20_29":99,"ika30_39":99,"ika40_49":99,"ika50_59":99,"ika60_69":99,"ika70_79":99,"ika_yli80":99,"paivitys_pvm":"2026-08-05Z"}},{"type":"Feature","id":"Vaestotietoruudukko_2025.2659","geometry":{"type":"Polygon","coordinates":[[[24.85586205,60.17652622],[24.85585222,60.17877006],[24.86035692,60.17877488],[24.86036645,60.17653104],[24.85586205,60.17652622]]]},"geometry_name":"geom","properties":{"index":13388,"asukkaita":17,"asvaljyys":75.41,"ika0_9":99,"ika10_19":99,"ika20_29":99,"ika30_39":99,"ika40_49":99,"ika50_59":99,"ika60_69":99,"ika70_79":99,"ika_yli80":99,"paivitys_pvm":"2026-08-05Z"}},{"type":"Feature","id":"Vaestotietoruudukko_2025.2660","geometry":{"type":"Polygon","coordinates":[[[24.85587188,60.17428237],[24.85586205,60.17652622],[24.86036645,60.17653104],[24.86037597,60.17428719],[24.85587188,60.17428237]]]},"geometry_name":"geom","properties":{"index":13389,"asukkaita":39,"asvaljyys":71.36,"ika0_9":99,"ika10_19":99,"ika20_29":99,"ika30_39":99,"ika40_49":99,"ika50_59":99,"ika60_69":99,"ika70_79":99,"ika_yli80":99,"paivitys_pvm":"2026-08-05Z"}},{"type":"Feature","id":"Vaestotietoruudukko_2025.2661","geometry":{"type":"Polygon","coordinates":[[[24.85588171,60.17203853],[24.85587188,60.17428237],[24.86037597,60.17428719],[24.86038549,60.17204335],[24.85588171,60.17203853]]]},"geometry_name":"geom","properties":{"index":13390,"asukkaita":18,"asvaljyys":120.28,"ika0_9":99,"ika10_19":99,"ika20_29":99,"ika30_39":99,"ika40_49":99,"ika50_59":99,"ika60_69":99,"ika70_79":99,"ika_yli80":99,"paivitys_pvm":"2026-08-05Z"}},{"type":"Feature","id":"Vaestotietoruudukko_2025.2662","geometry":{"type":"Polygon","coordinates":[[[24.85589154,60.16979468],[24.85588171,60.17203853],[24.86038549,60.17204335],[24.86039501,60.1697995],[24.85589154,60.16979468]]]},"geometry_name":"geom","properties":{"index":13391,"asukkaita":69,"asvaljyys":38.55,"ika0_9":99,"ika10_19":99,"ika20_29":99,"ika30_39":99,"ika40_49":99,"ika50_59":99,"ika60_69":99,"ika70_79":99,"ika_yli80":99,"paivitys_pvm":"2026-08-05Z"}},{"type":"Feature","id":"Vaestotietoruudukko_2025.2663","geometry":{"type":"Polygon","coordinates":[[[24.85590136,60.16755084],[24.85589154,60.16979468],[24.86039501,60.1697995],[24.86040453,60.16755566],[24.85590136,60.16755084]]]},"geometry_name":"geom","properties":{"index":13392,"asukkaita":268,"asvaljyys":44.38,"ika0_9":16,"ika10_19":35,"ika20_29":30,"ika30_39":37,"ika40_49":40,"ika50_59":37,"ika60_69":28,"ika70_79":30,"ika_yli80":15,"paivitys_pvm":"2026-08-05Z"}},{"type":"Feature","id":"Vaestotietoruudukko_2025.2664","geometry":{"type":"Polygon","coordinates":[[[24.85591119,60.165307],[24.85590136,60.16755084],[24.86040453,60.16755566],[24.86041405,60.16531181],[24.85591119,60.165307]]]},"geometry_name":"geom","properties":{"index":13393,"asukkaita":556,"asvaljyys":42.2,"ika0_9":64,"ika10_19":50,"ika20_29":93,"ika30_39":108,"ika40_49":72,"ika50_59":62,"ika60_69":37,"ika70_79":49,"ika_yli80":21,"paivitys_pvm":"2026-08-05Z"}},{"type":"Feature","id":"Vaestotietoruudukko_2025.2665","geometry":{"type":"Polygon","coordinates":[[[24.85592101,60.16306315],[24.85591119,60.165307],[24.86041405,60.16531181],[24.86042356,60.16306797],[24.85592101,60.16306315]]]},"geometry_name":"geom","properties":{"index":13394,"asukkaita":644,"asvaljyys":35.29,"ika0_9":60,"ika10_19":51,"ika20_29":80,"ika30_39":169,"ika40_49":82,"ika50_59":62,"ika60_69":54,"ika70_79":51,"ika_yli80":35,"paivitys_pvm":"2026-08-05Z"}},{"type":"Feature","id":"Vaestotietoruudukko_2025.2666","geometry":{"type":"Polygon","coordinates":[[[24.85593083,60.16081921],[24.85592101,60.16306315],[24.86042356,60.16306797],[24.86043307,60.16082403],[24.85593083,60.16081921]]]},"geometry_name":"geom","properties":{"index":13395,"asukkaita":492,"asvaljyys":34.95,"ika0_9":36,"ika10_19":59,"ika20_29":79,"ika30_39":83,"ika40_49":65,"ika50_59":54,"ika60_69":46,"ika70_79":47,"ika_yli80":23,"paivitys_pvm":"2026-08-05Z"}},{"type":"Feature","id":"Vaestotietoruudukko_2025.2667","geometry":{"type":"Polygon","coordinates":[[[24.85594065,60.15857536],[24.85593083,60.16081921],[24.86043307,60.16082403],[24.86044259,60.15858018],[24.85594065,60.15857536]]]},"geometry_name":"geom","properties":{"index":13396,"asukkaita":302,"asvaljyys":40.09,"ika0_9":39,"ika10_19":38,"ika20_29":22,"ika30_39":46,"ika40_49":50,"ika50_59":44,"ika60_69":20,"ika70_79":29,"ika_yli80":14,"paivitys_pvm":"2026-08-05Z"}}],"totalFeatures":173,"numberMatched":173,"numberReturned":173,"timeStamp":"2026-09-01T09:18:48.333Z","crs":{"type":"name","properties":{"name":"urn:ogc:def:crs:EPSG::4326"}}}